{
  "type": "FeatureCollection",
  "features": [
    {
      "type": "Feature",
      "properties": {
        "stroke": "#F08322",
        "stroke-width": 3,
        "stroke-opacity": 1,
        "name": "South Shore Line",
        "title": "South Shore Line",
        "description": "Map of the Lakeshore Corridor, a branch of the South Shore Line",
        "license": "CC0-1.0",
        "source": null
      },
      "geometry": {
        "coordinates": [
          [
            -87.62290008172212,
            41.884158459167224
          ],
          [
            -87.6228622838266,
            41.88178476522398
          ],
          [
            -87.62301832248447,
            41.8806225989357
          ],
          [
            -87.6230089394139,
            41.8804299783927
          ],
          [
            -87.62303576238094,
            41.87985755392879
          ],
          [
            -87.62295700995358,
            41.87784488272078
          ],
          [
            -87.62288513280727,
            41.87553442072277
          ],
          [
            -87.6228478901933,
            41.875142770274465
          ],
          [
            -87.62267288323567,
            41.87415406242499
          ],
          [
            -87.62261003742614,
            41.87180386838878
          ],
          [
            -87.62250342682637,
            41.87112868979739
          ],
          [
            -87.62221635758118,
            41.87038265740463
          ],
          [
            -87.62185127075408,
            41.86936316341152
          ],
          [
            -87.6202725855194,
            41.86574272206829
          ],
          [
            -87.61983630670872,
            41.86462422672611
          ],
          [
            -87.61967072424801,
            41.864069256697675
          ],
          [
            -87.61958117551434,
            41.86350399128392
          ],
          [
            -87.61943058651697,
            41.86206328194908
          ],
          [
            -87.61888596391789,
            41.86011942187184
          ],
          [
            -87.61812499559814,
            41.858302075877276
          ],
          [
            -87.61776910720779,
            41.857580516401384
          ],
          [
            -87.61718653699596,
            41.85614115809511
          ],
          [
            -87.61707206315033,
            41.85564568692084
          ],
          [
            -87.61709055959041,
            41.85519079877375
          ],
          [
            -87.6173392671723,
            41.85417979768397
          ],
          [
            -87.61733365459826,
            41.8538013940197
          ],
          [
            -87.61724713665681,
            41.853436897049306
          ],
          [
            -87.615173708515,
            41.84856091888112
          ],
          [
            -87.61460216658118,
            41.84701324303277
          ],
          [
            -87.61381768110101,
            41.84514755488043
          ],
          [
            -87.61311552527678,
            41.8436650057474
          ],
          [
            -87.60900389233262,
            41.83401522147699
          ],
          [
            -87.60875896211546,
            41.83353196871279
          ],
          [
            -87.60848248592997,
            41.833057489615975
          ],
          [
            -87.60815627142648,
            41.832593660130755
          ],
          [
            -87.59847279546536,
            41.81992082348464
          ],
          [
            -87.58934067125374,
            41.8069040564111
          ],
          [
            -87.58882343516755,
            41.806009222805784
          ],
          [
            -87.58836685387918,
            41.805091399482706
          ],
          [
            -87.58798655654482,
            41.804148620467416
          ],
          [
            -87.58766595053017,
            41.803202439795946
          ],
          [
            -87.58739032649373,
            41.80224618795103
          ],
          [
            -87.58716193522419,
            41.80126853244016
          ],
          [
            -87.58699837112448,
            41.800289768795565
          ],
          [
            -87.58689616706309,
            41.79930471705052
          ],
          [
            -87.58686036334448,
            41.798340434504055
          ],
          [
            -87.5868693574695,
            41.79735308308456
          ],
          [
            -87.58695447984125,
            41.79635469246428
          ],
          [
            -87.58710636621083,
            41.79541024193964
          ],
          [
            -87.58731461320963,
            41.79442523760932
          ],
          [
            -87.60213197078691,
            41.72938119918865
          ],
          [
            -87.61076373521372,
            41.6916838838507
          ],
          [
            -87.61148570252166,
            41.68866353720168
          ],
          [
            -87.61157087302047,
            41.68807211141771
          ],
          [
            -87.61223511571966,
            41.68514557937689
          ],
          [
            -87.6123302301379,
            41.68468730726812
          ],
          [
            -87.61235670373767,
            41.68444165978326
          ],
          [
            -87.61228425466591,
            41.68350541485529
          ],
          [
            -87.61224943260522,
            41.68332318151275
          ],
          [
            -87.61218426880906,
            41.68313843037237
          ],
          [
            -87.61178080956678,
            41.6823249573589
          ],
          [
            -87.61018421558137,
            41.67864769988091
          ],
          [
            -87.60979987351142,
            41.67798688648351
          ],
          [
            -87.60936492617849,
            41.67737379587746
          ],
          [
            -87.59458074845386,
            41.660326439171314
          ],
          [
            -87.59406334723602,
            41.65985044384037
          ],
          [
            -87.59349330227087,
            41.65940394627824
          ],
          [
            -87.59285689039879,
            41.65903436276176
          ],
          [
            -87.59217441524731,
            41.65869919374644
          ],
          [
            -87.59138906402579,
            41.658433379584565
          ],
          [
            -87.59055764952488,
            41.65821672944049
          ],
          [
            -87.5896881048556,
            41.65809886181559
          ],
          [
            -87.58880539924888,
            41.658039991328536
          ],
          [
            -87.58461581416447,
            41.658045148650125
          ],
          [
            -87.58177622033726,
            41.658014758379224
          ],
          [
            -87.5699882555996,
            41.65805243075309
          ],
          [
            -87.56197664954185,
            41.658274306464875
          ],
          [
            -87.56141275366465,
            41.65825936451307
          ],
          [
            -87.56083708504399,
            41.65819630041645
          ],
          [
            -87.5602876834562,
            41.65808557629458
          ],
          [
            -87.55983579964831,
            41.65795822191005
          ],
          [
            -87.55850849368046,
            41.6575405324505
          ],
          [
            -87.55809043814082,
            41.6573733709778
          ],
          [
            -87.55768375772179,
            41.657190911795354
          ],
          [
            -87.55737262831755,
            41.657018651115955
          ],
          [
            -87.55708197413097,
            41.656829392888255
          ],
          [
            -87.5506670362287,
            41.65167244990187
          ],
          [
            -87.54639585265654,
            41.6483700156861
          ],
          [
            -87.54559417212948,
            41.64772706857091
          ],
          [
            -87.54141623725059,
            41.64448757487432
          ],
          [
            -87.54074680620447,
            41.64399759819415
          ],
          [
            -87.5390998405457,
            41.642783278531795
          ],
          [
            -87.53807735340018,
            41.642097977296345
          ],
          [
            -87.53606689837005,
            41.64094935365952
          ],
          [
            -87.53496909152555,
            41.64031980243314
          ],
          [
            -87.53427246017081,
            41.639851953183836
          ],
          [
            -87.53363943634776,
            41.639385929802955
          ],
          [
            -87.5268380196614,
            41.634106346516546
          ],
          [
            -87.5264140130368,
            41.6337465359137
          ],
          [
            -87.52573924459912,
            41.633148606454256
          ],
          [
            -87.52523300593896,
            41.632722235124874
          ],
          [
            -87.52473859834603,
            41.632358371207424
          ],
          [
            -87.52448772367924,
            41.63217114355281
          ],
          [
            -87.5242316653289,
            41.63201060294375
          ],
          [
            -87.52393957842277,
            41.631876991049346
          ],
          [
            -87.52364028580573,
            41.63178377228648
          ],
          [
            -87.52333018462168,
            41.631725560969784
          ],
          [
            -87.51797930900783,
            41.63108251252669
          ],
          [
            -87.51774943665288,
            41.63106528908054
          ],
          [
            -87.5121390506402,
            41.630927965049636
          ],
          [
            -87.50861549399937,
            41.63088484901314
          ],
          [
            -87.50448799470954,
            41.63094065829992
          ],
          [
            -87.50383912351087,
            41.6309232157238
          ],
          [
            -87.50317508139088,
            41.63085622347551
          ],
          [
            -87.50253064060908,
            41.63075860268333
          ],
          [
            -87.50189790095429,
            41.63062207793668
          ],
          [
            -87.50125877699715,
            41.63044953608039
          ],
          [
            -87.50065251766267,
            41.630231874484686
          ],
          [
            -87.50007751227014,
            41.62998512661228
          ],
          [
            -87.49953635813091,
            41.629710864231754
          ],
          [
            -87.4947683536997,
            41.62689012995534
          ],
          [
            -87.49415452338926,
            41.62649807095946
          ],
          [
            -87.49356399115278,
            41.6260820955541
          ],
          [
            -87.4930241243732,
            41.62562416172001
          ],
          [
            -87.49254145182171,
            41.625137079936096
          ],
          [
            -87.49213775111295,
            41.62461504996898
          ],
          [
            -87.49181434136607,
            41.62407859630664
          ],
          [
            -87.49155484467518,
            41.62352354030345
          ],
          [
            -87.49135916037018,
            41.62296920309768
          ],
          [
            -87.49086947567915,
            41.62095291484215
          ],
          [
            -87.49054741257339,
            41.619572226516595
          ],
          [
            -87.49036847401327,
            41.61900460533603
          ],
          [
            -87.49012860088078,
            41.618446420059485
          ],
          [
            -87.4898071890047,
            41.617903510407885
          ],
          [
            -87.48943570823745,
            41.617380261939395
          ],
          [
            -87.48898211156732,
            41.61688452427282
          ],
          [
            -87.48846977073786,
            41.61642511813123
          ],
          [
            -87.48791462087341,
            41.61600255030774
          ],
          [
            -87.48730205231715,
            41.615638284336185
          ],
          [
            -87.48609037607109,
            41.61501654137729
          ],
          [
            -87.481911576217,
            41.613024765073476
          ],
          [
            -87.47874128287759,
            41.61151537545351
          ],
          [
            -87.47800643964064,
            41.61119714710865
          ],
          [
            -87.47743252670276,
            41.61101154838016
          ],
          [
            -87.4768054781239,
            41.61086567759403
          ],
          [
            -87.47616324793324,
            41.61077088566044
          ],
          [
            -87.47552101774258,
            41.6107300104186
          ],
          [
            -87.47402342615139,
            41.61071096581941
          ],
          [
            -87.44606363661062,
            41.61051398329752
          ],
          [
            -87.44460607417341,
            41.61048546712777
          ],
          [
            -87.43390398978808,
            41.6101694423773
          ],
          [
            -87.43258576605456,
            41.61010528898589
          ],
          [
            -87.42669645623215,
            41.60972794633602
          ],
          [
            -87.42567163672088,
            41.609631948881216
          ],
          [
            -87.42465492811257,
            41.60950158641705
          ],
          [
            -87.40270173353764,
            41.60601303859923
          ],
          [
            -87.40111171742628,
            41.60581410995444
          ],
          [
            -87.39971617804639,
            41.60566898355453
          ],
          [
            -87.39837053951807,
            41.60556870999821
          ],
          [
            -87.39671303219275,
            41.60548579428
          ],
          [
            -87.39505774344794,
            41.60545264584027
          ],
          [
            -87.37082064770937,
            41.60559828464763
          ],
          [
            -87.3688528625676,
            41.60559364265519
          ],
          [
            -87.3568635025386,
            41.60566743267424
          ],
          [
            -87.35449931544883,
            41.60570035263688
          ],
          [
            -87.34771376880569,
            41.60574329100557
          ],
          [
            -87.34726194177323,
            41.60573551801538
          ],
          [
            -87.34634973973856,
            41.60570062893319
          ],
          [
            -87.34595540767076,
            41.60569316906933
          ],
          [
            -87.34355940354017,
            41.60570647001887
          ],
          [
            -87.34292385067448,
            41.60568374048917
          ],
          [
            -87.34228276010992,
            41.60562358480843
          ],
          [
            -87.34165001028508,
            41.60551693447677
          ],
          [
            -87.34104164171971,
            41.60538110029634
          ],
          [
            -87.33995144607103,
            41.60509093695836
          ],
          [
            -87.3395610271332,
            41.60500263253418
          ],
          [
            -87.33916549306947,
            41.60493393063001
          ],
          [
            -87.33271226331132,
            41.60402060571735
          ],
          [
            -87.33223984485775,
            41.60394108247762
          ],
          [
            -87.33177715997772,
            41.60385211012015
          ],
          [
            -87.32986869736969,
            41.60346265943339
          ],
          [
            -87.3270368611024,
            41.60286384127179
          ],
          [
            -87.29428445226705,
            41.595572972543124
          ],
          [
            -87.2933375442103,
            41.59539051268738
          ],
          [
            -87.29238856882039,
            41.59523619852206
          ],
          [
            -87.29143207506662,
            41.59511374593816
          ],
          [
            -87.2904385328459,
            41.5950283866141
          ],
          [
            -87.28946912956448,
            41.594969437247094
          ],
          [
            -87.28849972628308,
            41.594934750207685
          ],
          [
            -87.28750364359024,
            41.59494773890145
          ],
          [
            -87.28653291254527,
            41.59499254531123
          ],
          [
            -87.28556675449913,
            41.5950795486314
          ],
          [
            -87.28458538139164,
            41.5951971601163
          ],
          [
            -87.2836285202719,
            41.59535315684833
          ],
          [
            -87.28268780453283,
            41.59554753652802
          ],
          [
            -87.27896898286573,
            41.59643671909441
          ],
          [
            -87.27461510049157,
            41.59748898195255
          ],
          [
            -87.27435359568153,
            41.59754136675063
          ],
          [
            -87.27409055902044,
            41.59758332498378
          ],
          [
            -87.27354156876416,
            41.597636335720935
          ],
          [
            -87.27282595587933,
            41.597657319111505
          ],
          [
            -87.26446693588429,
            41.59767052885934
          ],
          [
            -87.26388819980416,
            41.59771008903967
          ],
          [
            -87.26331275268304,
            41.59782493409914
          ],
          [
            -87.26277952623131,
            41.59799704470567
          ],
          [
            -87.26229177369797,
            41.598219469791644
          ],
          [
            -87.26110504398187,
            41.598912209787215
          ],
          [
            -87.25742708775299,
            41.60117016828519
          ],
          [
            -87.25676591742264,
            41.60150282701241
          ],
          [
            -87.2560817785961,
            41.601789880223066
          ],
          [
            -87.25536078091666,
            41.602043717521866
          ],
          [
            -87.25462576005943,
            41.60225671386672
          ],
          [
            -87.24790829635367,
            41.60388736297361
          ],
          [
            -87.24549383809587,
            41.604459111656
          ],
          [
            -87.22971612038654,
            41.60825715497224
          ],
          [
            -87.22347999680179,
            41.60978780430861
          ],
          [
            -87.20425710903433,
            41.61441950239397
          ],
          [
            -87.20204213046229,
            41.61494253948027
          ],
          [
            -87.20065152004511,
            41.615244177732094
          ],
          [
            -87.19924237335111,
            41.615511223221624
          ],
          [
            -87.19779651188418,
            41.6157471035289
          ],
          [
            -87.19278015410275,
            41.61646628815743
          ],
          [
            -87.19056100153405,
            41.61675608088048
          ],
          [
            -87.18363163665649,
            41.61775945244116
          ],
          [
            -87.18142066275175,
            41.61809389442892
          ],
          [
            -87.17835517794717,
            41.61857609982796
          ],
          [
            -87.17387272024489,
            41.619226453891145
          ],
          [
            -87.17288696801381,
            41.6193458557038
          ],
          [
            -87.17195012545622,
            41.61942560470677
          ],
          [
            -87.17098959958437,
            41.619485909122375
          ],
          [
            -87.15673493689248,
            41.619884971530496
          ],
          [
            -87.15576185995221,
            41.61990049318768
          ],
          [
            -87.1548012522762,
            41.61987769607752
          ],
          [
            -87.15375783738614,
            41.61982089984457
          ],
          [
            -87.13505172653656,
            41.618305523070205
          ],
          [
            -87.13413628493934,
            41.61826129335138
          ],
          [
            -87.13319494591961,
            41.6182748616609
          ],
          [
            -87.1322471217163,
            41.61834340303312
          ],
          [
            -87.13130848031702,
            41.61847971246429
          ],
          [
            -87.13040502879561,
            41.618671313976876
          ],
          [
            -87.12950793721248,
            41.61893533787448
          ],
          [
            -87.1286958821667,
            41.61924711936193
          ],
          [
            -87.1279150573077,
            41.61960524364963
          ],
          [
            -87.1260789985002,
            41.62057531283359
          ],
          [
            -87.12369582134511,
            41.62186686996231
          ],
          [
            -87.11979773149338,
            41.62401658770578
          ],
          [
            -87.11127690817051,
            41.62860847759188
          ],
          [
            -87.11053322310634,
            41.62898372590385
          ],
          [
            -87.1097611099074,
            41.62934334140591
          ],
          [
            -87.10896320548291,
            41.629671189455124
          ],
          [
            -87.10814575311437,
            41.629966931736234
          ],
          [
            -87.10735292050879,
            41.63020679211559
          ],
          [
            -87.07457130921479,
            41.64029167576869
          ],
          [
            -87.0701067015914,
            41.64167899602617
          ],
          [
            -87.0675168444813,
            41.64258950638144
          ],
          [
            -87.0632441257129,
            41.64413595717746
          ],
          [
            -87.05646761083896,
            41.64654442849499
          ],
          [
            -87.05405079516106,
            41.64739189592156
          ],
          [
            -87.0199184261624,
            41.65950594536495
          ],
          [
            -87.01698444522279,
            41.660585310016586
          ],
          [
            -86.99612773809697,
            41.66851007456701
          ],
          [
            -86.99537040912044,
            41.66881881156755
          ],
          [
            -86.96803346292342,
            41.68079787080984
          ],
          [
            -86.95523957408719,
            41.68642192307337
          ],
          [
            -86.9500349983563,
            41.68887474049434
          ],
          [
            -86.93913340209401,
            41.69395762213446
          ],
          [
            -86.9383821187778,
            41.69434151663812
          ],
          [
            -86.93764320602912,
            41.694757287125206
          ],
          [
            -86.9369234322311,
            41.69520078796043
          ],
          [
            -86.93623118818066,
            41.6956556080617
          ],
          [
            -86.93526714578958,
            41.69636001414154
          ],
          [
            -86.9346356009846,
            41.69687747446338
          ],
          [
            -86.93379411509667,
            41.69767740132929
          ],
          [
            -86.92662429475216,
            41.705159648075295
          ],
          [
            -86.9263986861227,
            41.70535020610834
          ],
          [
            -86.92613933953287,
            41.70552177160276
          ],
          [
            -86.92585921653446,
            41.7056839413731
          ],
          [
            -86.9255704708303,
            41.70582880911945
          ],
          [
            -86.92525284576031,
            41.705955064179555
          ],
          [
            -86.92492303554162,
            41.706060992270736
          ],
          [
            -86.92458616089958,
            41.70614639008523
          ],
          [
            -86.92424362179719,
            41.70621059353803
          ],
          [
            -86.92194263625336,
            41.70649799434576
          ],
          [
            -86.920874693085,
            41.706642941409555
          ],
          [
            -86.92020283986272,
            41.706747189563714
          ],
          [
            -86.91346872444441,
            41.70792146269909
          ],
          [
            -86.91285086247417,
            41.70807393361572
          ],
          [
            -86.91067690954088,
            41.70868780916934
          ],
          [
            -86.91037696839946,
            41.70875607285855
          ],
          [
            -86.91008005935856,
            41.708808879502044
          ],
          [
            -86.90768789075643,
            41.709080294664574
          ],
          [
            -86.90717664826508,
            41.709156162880916
          ],
          [
            -86.90668133529694,
            41.709261941581474
          ],
          [
            -86.9007259404693,
            41.71093377648778
          ],
          [
            -86.89929222184738,
            41.71135527763118
          ],
          [
            -86.89392017748334,
            41.71285787921508
          ],
          [
            -86.89362975544452,
            41.7129183654072
          ],
          [
            -86.89333204615154,
            41.71296087755191
          ],
          [
            -86.89302951132186,
            41.712990799378225
          ],
          [
            -86.89272702395628,
            41.71300272131492
          ],
          [
            -86.8897410871573,
            41.71300521245486
          ],
          [
            -86.8882060458854,
            41.71298792674437
          ],
          [
            -86.88579444791672,
            41.712986440974845
          ],
          [
            -86.88557858316611,
            41.7129964218981
          ],
          [
            -86.88536846579144,
            41.7130181551645
          ],
          [
            -86.88515903103347,
            41.71304684537617
          ],
          [
            -86.88495961390392,
            41.713083021743486
          ],
          [
            -86.88461526406576,
            41.713154371789415
          ],
          [
            -86.8843968863529,
            41.713195464736295
          ],
          [
            -86.88417873403444,
            41.713226383211136
          ],
          [
            -86.88395323760061,
            41.71324620700272
          ],
          [
            -86.88372679871907,
            41.71325450977483
          ],
          [
            -86.88318168429544,
            41.71325031069651
          ],
          [
            -86.8827545789707,
            41.71325286102446
          ],
          [
            -86.88233207739349,
            41.71326817256056
          ],
          [
            -86.88160149717999,
            41.71332092124236
          ],
          [
            -86.88137461214217,
            41.71332922258985
          ],
          [
            -86.88114771235591,
            41.71333217514676
          ],
          [
            -86.88092515817922,
            41.71333081044423
          ],
          [
            -86.87531655745384,
            41.713247440098556
          ],
          [
            -86.87476489136805,
            41.71324372153086
          ],
          [
            -86.87063342045116,
            41.71327296818097
          ],
          [
            -86.86987326551859,
            41.713297116683975
          ],
          [
            -86.86849421063606,
            41.71330748254874
          ],
          [
            -86.86744289716742,
            41.71330635492066
          ],
          [
            -86.8666296054585,
            41.71329755697637
          ],
          [
            -86.86581752393062,
            41.713277610248106
          ],
          [
            -86.8650066527315,
            41.713244848000386
          ],
          [
            -86.86419212939893,
            41.71319973875141
          ],
          [
            -86.86338422958892,
            41.713140713182185
          ],
          [
            -86.86095889555439,
            41.7129335008127
          ],
          [
            -86.85446787862115,
            41.712354292727795
          ],
          [
            -86.84537243546843,
            41.71154281230221
          ],
          [
            -86.84415883582345,
            41.7114785081787
          ],
          [
            -86.84293287807742,
            41.71146263730617
          ],
          [
            -86.84170773256878,
            41.71151116761199
          ],
          [
            -86.8404933206864,
            41.711599258683094
          ],
          [
            -86.83930484543193,
            41.711758267885
          ],
          [
            -86.8381254844658,
            41.71195169712513
          ],
          [
            -86.83695949454491,
            41.712191350497264
          ],
          [
            -86.83580448953978,
            41.712451861508754
          ],
          [
            -86.82979190788501,
            41.71395738782306
          ],
          [
            -86.81481594144041,
            41.71762388768198
          ],
          [
            -86.81416014362276,
            41.71776738914719
          ],
          [
            -86.81350532442026,
            41.7179022548584
          ],
          [
            -86.812840959238,
            41.718026303026846
          ],
          [
            -86.81217657697576,
            41.71812468289887
          ],
          [
            -86.81150534075641,
            41.71821323636681
          ],
          [
            -86.81083425685739,
            41.71828685746755
          ],
          [
            -86.81017260290885,
            41.718342675912474
          ],
          [
            -86.80949798485477,
            41.718375278739174
          ],
          [
            -86.80788353718975,
            41.7183970278408
          ],
          [
            -86.80626023078915,
            41.718399884433666
          ],
          [
            -86.75923481298548,
            41.71801265320712
          ],
          [
            -86.70314433495925,
            41.71757566906756
          ],
          [
            -86.63699990953528,
            41.71709212470111
          ],
          [
            -86.5853281648976,
            41.71663710350373
          ],
          [
            -86.58466183589948,
            41.71661004499238
          ],
          [
            -86.58393118531444,
            41.71654782282542
          ],
          [
            -86.58320665795658,
            41.71645685533433
          ],
          [
            -86.58250000440255,
            41.71632159338108
          ],
          [
            -86.5818202697338,
            41.71614869252139
          ],
          [
            -86.58115715216552,
            41.71595703315228
          ],
          [
            -86.5805433000894,
            41.71574163451869
          ],
          [
            -86.57994465447752,
            41.715516676233165
          ],
          [
            -86.57691299119264,
            41.71427701824311
          ],
          [
            -86.57604694420499,
            41.713984178065026
          ],
          [
            -86.57515635941289,
            41.71374565771471
          ],
          [
            -86.5742291290329,
            41.71353815745136
          ],
          [
            -86.57329263201451,
            41.71336514760918
          ],
          [
            -86.57237845179984,
            41.7132328545856
          ],
          [
            -86.57144771981561,
            41.713130987393356
          ],
          [
            -86.56959661598124,
            41.71298618462424
          ],
          [
            -86.56377342469284,
            41.7126500625277
          ],
          [
            -86.55851625834634,
            41.71230119280489
          ],
          [
            -86.55745713351436,
            41.71221267341551
          ],
          [
            -86.55641244808717,
            41.712098769234615
          ],
          [
            -86.54972634804635,
            41.71117272677073
          ],
          [
            -86.54609494866722,
            41.71067777278503
          ],
          [
            -86.53757714345421,
            41.70948549469557
          ],
          [
            -86.53707344312649,
            41.70942703343541
          ],
          [
            -86.536557767117,
            41.709388240590144
          ],
          [
            -86.53603969597185,
            41.70936106999634
          ],
          [
            -86.53551683455424,
            41.70934820371966
          ],
          [
            -86.52093691439663,
            41.709159642276404
          ],
          [
            -86.52035916244205,
            41.70916817478211
          ],
          [
            -86.51978871553273,
            41.709201929482134
          ],
          [
            -86.51921173840898,
            41.709258911720895
          ],
          [
            -86.51636619237999,
            41.709608023434185
          ],
          [
            -86.51590380090485,
            41.70965276710155
          ],
          [
            -86.5154414094297,
            41.709683823608586
          ],
          [
            -86.51496182939098,
            41.709692638486125
          ],
          [
            -86.51448454116131,
            41.70968434442494
          ],
          [
            -86.51401731502206,
            41.709650366240716
          ],
          [
            -86.51355566254098,
            41.709603905410475
          ],
          [
            -86.51309637810418,
            41.70953650372561
          ],
          [
            -86.51264266732643,
            41.709455232410306
          ],
          [
            -86.51169713088585,
            41.70926099365343
          ],
          [
            -86.51130203363579,
            41.70916665259199
          ],
          [
            -86.50969474515072,
            41.70880857858947
          ],
          [
            -86.5084866715278,
            41.7085151478787
          ],
          [
            -86.50274080446889,
            41.70726879049806
          ],
          [
            -86.49794562775064,
            41.70626952140907
          ],
          [
            -86.49710670401872,
            41.706132164262016
          ],
          [
            -86.4962632340587,
            41.70601686852831
          ],
          [
            -86.48105161965022,
            41.704253012696
          ],
          [
            -86.48048579865454,
            41.70420029965662
          ],
          [
            -86.47977982249509,
            41.70416253495421
          ],
          [
            -86.47921812641371,
            41.704145123832205
          ],
          [
            -86.47683674622226,
            41.704028400107916
          ],
          [
            -86.4757132175783,
            41.7039171882664
          ],
          [
            -86.47460618004445,
            41.703770816012536
          ],
          [
            -86.47345674014966,
            41.703565870358396
          ],
          [
            -86.47195575884994,
            41.70325720840971
          ],
          [
            -86.47121596285386,
            41.70312189299751
          ],
          [
            -86.47046791618429,
            41.703005057490145
          ],
          [
            -86.38977619557674,
            41.69358243227381
          ],
          [
            -86.38897080886687,
            41.693502770972614
          ],
          [
            -86.388165422157,
            41.69344229815556
          ],
          [
            -86.38490762858362,
            41.6932277166198
          ],
          [
            -86.38328497263628,
            41.69306909218892
          ],
          [
            -86.38177664020523,
            41.692891635620455
          ],
          [
            -86.38028373529862,
            41.69265657878222
          ],
          [
            -86.37794317774477,
            41.692230422120964
          ],
          [
            -86.37744171368603,
            41.692154760657914
          ],
          [
            -86.3765977425973,
            41.69204840798578
          ],
          [
            -86.3656380184994,
            41.69073295569113
          ],
          [
            -86.36395886276517,
            41.690527848349255
          ],
          [
            -86.30975937090197,
            41.683441929583864
          ],
          [
            -86.30944193779962,
            41.68343498409194
          ],
          [
            -86.30915270646983,
            41.68346617242162
          ],
          [
            -86.30887570323361,
            41.68352794074076
          ],
          [
            -86.30862437081832,
            41.68362106534612
          ],
          [
            -86.30839248493936,
            41.683745959393235
          ],
          [
            -86.30785298047431,
            41.684120219945356
          ],
          [
            -86.30767989885514,
            41.68421310939608
          ],
          [
            -86.30749466315136,
            41.68429873730212
          ],
          [
            -86.30730091958819,
            41.68437256520781
          ],
          [
            -86.30709745275679,
            41.68443368544122
          ],
          [
            -86.3068927705175,
            41.68448255183699
          ],
          [
            -86.30667836500999,
            41.684516895201774
          ],
          [
            -86.30646639031953,
            41.68453943860932
          ],
          [
            -86.30624955399502,
            41.68454927437767
          ],
          [
            -86.30440055386003,
            41.68456176151156
          ],
          [
            -86.30342249283352,
            41.684654722247586
          ],
          [
            -86.29474489195935,
            41.68473184978055
          ],
          [
            -86.29435833670134,
            41.684789832306464
          ],
          [
            -86.29399320473073,
            41.684938307000934
          ],
          [
            -86.29369453870925,
            41.68514036598306
          ],
          [
            -86.2934479473068,
            41.685409205779344
          ],
          [
            -86.29327171697919,
            41.68569783244004
          ],
          [
            -86.29321873005823,
            41.685972474281925
          ],
          [
            -86.29328408808318,
            41.69013726573398
          ],
          [
            -86.29324242674565,
            41.69106023981326
          ],
          [
            -86.29340353409647,
            41.697666985480296
          ],
          [
            -86.29338831198372,
            41.69842172370316
          ],
          [
            -86.29343529133281,
            41.70011564173116
          ],
          [
            -86.29340219766227,
            41.70069453376865
          ],
          [
            -86.29344415900883,
            41.70182687301954
          ],
          [
            -86.29352466454655,
            41.70216547313175
          ],
          [
            -86.29370457994796,
            41.70246110335778
          ],
          [
            -86.2939263795062,
            41.702723668921
          ],
          [
            -86.29422927658482,
            41.70295693708675
          ],
          [
            -86.29457288302389,
            41.70312658733011
          ],
          [
            -86.29495311414973,
            41.70325131520521
          ],
          [
            -86.29539602407736,
            41.70331370122914
          ],
          [
            -86.29584939820157,
            41.70330772728076
          ],
          [
            -86.29863119126948,
            41.70284128222369
          ],
          [
            -86.29907196195897,
            41.702793403332194
          ],
          [
            -86.29952319684506,
            41.70276505601029
          ],
          [
            -86.30278498074829,
            41.70270973601174
          ],
          [
            -86.30315476320361,
            41.7026551007804
          ],
          [
            -86.30350899928783,
            41.702557973117806
          ],
          [
            -86.30382921788119,
            41.702414518762346
          ],
          [
            -86.30410749387516,
            41.702239749626415
          ],
          [
            -86.30512970572752,
            41.70144109910099
          ],
          [
            -86.30542137232887,
            41.7012830891083
          ],
          [
            -86.30574796897993,
            41.701147433045584
          ],
          [
            -86.30611698069178,
            41.70105462207148
          ],
          [
            -86.30649597241698,
            41.70100279344615
          ],
          [
            -86.30738344748268,
            41.70099580738163
          ],
          [
            -86.30774360239681,
            41.70098579442156
          ],
          [
            -86.30809377729632,
            41.700960878769166
          ],
          [
            -86.30907128178937,
            41.70084935498657
          ],
          [
            -86.30957111840043,
            41.700804972435584
          ],
          [
            -86.31006541282942,
            41.70078127964612
          ],
          [
            -86.31101828970954,
            41.700771975495
          ]
        ],
        "type": "LineString"
      }
    }
  ]
}