{
  "type": "FeatureCollection",
  "features": [
    {
      "type": "Feature",
      "properties": {
        "stroke": "#ED1D24",
        "stroke-width": 3,
        "stroke-opacity": 1,
        "name": "South Shore Line",
        "title": "South Shore Line",
        "description": "Map of the Monon Corridor, a branch of the South Shore Line",
        "license": "CC0-1.0",
        "source": null
      },
      "geometry": {
        "coordinates": [
          [
            -87.62290008172212,
            41.884158459167224
          ],
          [
            -87.6228622838266,
            41.88178476522398
          ],
          [
            -87.62301832248447,
            41.8806225989357
          ],
          [
            -87.6230089394139,
            41.8804299783927
          ],
          [
            -87.62303576238094,
            41.87985755392879
          ],
          [
            -87.62295700995358,
            41.87784488272078
          ],
          [
            -87.62288513280727,
            41.87553442072277
          ],
          [
            -87.6228478901933,
            41.875142770274465
          ],
          [
            -87.62267288323567,
            41.87415406242499
          ],
          [
            -87.62261003742614,
            41.87180386838878
          ],
          [
            -87.62250342682637,
            41.87112868979739
          ],
          [
            -87.62221635758118,
            41.87038265740463
          ],
          [
            -87.62185127075408,
            41.86936316341152
          ],
          [
            -87.6202725855194,
            41.86574272206829
          ],
          [
            -87.61983630670872,
            41.86462422672611
          ],
          [
            -87.61967072424801,
            41.864069256697675
          ],
          [
            -87.61958117551434,
            41.86350399128392
          ],
          [
            -87.61943058651697,
            41.86206328194908
          ],
          [
            -87.61888596391789,
            41.86011942187184
          ],
          [
            -87.61812499559814,
            41.858302075877276
          ],
          [
            -87.61776910720779,
            41.857580516401384
          ],
          [
            -87.61718653699596,
            41.85614115809511
          ],
          [
            -87.61707206315033,
            41.85564568692084
          ],
          [
            -87.61709055959041,
            41.85519079877375
          ],
          [
            -87.6173392671723,
            41.85417979768397
          ],
          [
            -87.61733365459826,
            41.8538013940197
          ],
          [
            -87.61724713665681,
            41.853436897049306
          ],
          [
            -87.615173708515,
            41.84856091888112
          ],
          [
            -87.61460216658118,
            41.84701324303277
          ],
          [
            -87.61381768110101,
            41.84514755488043
          ],
          [
            -87.61311552527678,
            41.8436650057474
          ],
          [
            -87.60900389233262,
            41.83401522147699
          ],
          [
            -87.60875896211546,
            41.83353196871279
          ],
          [
            -87.60848248592997,
            41.833057489615975
          ],
          [
            -87.60815627142648,
            41.832593660130755
          ],
          [
            -87.59847279546536,
            41.81992082348464
          ],
          [
            -87.58934067125374,
            41.8069040564111
          ],
          [
            -87.58882343516755,
            41.806009222805784
          ],
          [
            -87.58836685387918,
            41.805091399482706
          ],
          [
            -87.58798655654482,
            41.804148620467416
          ],
          [
            -87.58766595053017,
            41.803202439795946
          ],
          [
            -87.58739032649373,
            41.80224618795103
          ],
          [
            -87.58716193522419,
            41.80126853244016
          ],
          [
            -87.58699837112448,
            41.800289768795565
          ],
          [
            -87.58689616706309,
            41.79930471705052
          ],
          [
            -87.58686036334448,
            41.798340434504055
          ],
          [
            -87.5868693574695,
            41.79735308308456
          ],
          [
            -87.58695447984125,
            41.79635469246428
          ],
          [
            -87.58710636621083,
            41.79541024193964
          ],
          [
            -87.58731461320963,
            41.79442523760932
          ],
          [
            -87.60213197078691,
            41.72938119918865
          ],
          [
            -87.61076373521372,
            41.6916838838507
          ],
          [
            -87.61148570252166,
            41.68866353720168
          ],
          [
            -87.61157087302047,
            41.68807211141771
          ],
          [
            -87.61223511571966,
            41.68514557937689
          ],
          [
            -87.6123302301379,
            41.68468730726812
          ],
          [
            -87.61235670373767,
            41.68444165978326
          ],
          [
            -87.61228425466591,
            41.68350541485529
          ],
          [
            -87.61224943260522,
            41.68332318151275
          ],
          [
            -87.61218426880906,
            41.68313843037237
          ],
          [
            -87.61178080956678,
            41.6823249573589
          ],
          [
            -87.61018421558137,
            41.67864769988091
          ],
          [
            -87.60979987351142,
            41.67798688648351
          ],
          [
            -87.60936492617849,
            41.67737379587746
          ],
          [
            -87.59458074845386,
            41.660326439171314
          ],
          [
            -87.59406334723602,
            41.65985044384037
          ],
          [
            -87.59349330227087,
            41.65940394627824
          ],
          [
            -87.59285689039879,
            41.65903436276176
          ],
          [
            -87.59217441524731,
            41.65869919374644
          ],
          [
            -87.59138906402579,
            41.658433379584565
          ],
          [
            -87.59055764952488,
            41.65821672944049
          ],
          [
            -87.5896881048556,
            41.65809886181559
          ],
          [
            -87.58880539924888,
            41.658039991328536
          ],
          [
            -87.58461581416447,
            41.658045148650125
          ],
          [
            -87.58177622033726,
            41.658014758379224
          ],
          [
            -87.5699882555996,
            41.65805243075309
          ],
          [
            -87.56197664954185,
            41.658274306464875
          ],
          [
            -87.56141275366465,
            41.65825936451307
          ],
          [
            -87.56083708504399,
            41.65819630041645
          ],
          [
            -87.5602876834562,
            41.65808557629458
          ],
          [
            -87.55983579964831,
            41.65795822191005
          ],
          [
            -87.55850849368046,
            41.6575405324505
          ],
          [
            -87.55809043814082,
            41.6573733709778
          ],
          [
            -87.55768375772179,
            41.657190911795354
          ],
          [
            -87.55737262831755,
            41.657018651115955
          ],
          [
            -87.55708197413097,
            41.656829392888255
          ],
          [
            -87.5506670362287,
            41.65167244990187
          ],
          [
            -87.54639585265654,
            41.6483700156861
          ],
          [
            -87.54559417212948,
            41.64772706857091
          ],
          [
            -87.54141623725059,
            41.64448757487432
          ],
          [
            -87.54074680620447,
            41.64399759819415
          ],
          [
            -87.5390998405457,
            41.642783278531795
          ],
          [
            -87.53807735340018,
            41.642097977296345
          ],
          [
            -87.53606689837005,
            41.64094935365952
          ],
          [
            -87.53496909152555,
            41.64031980243314
          ],
          [
            -87.53427246017081,
            41.639851953183836
          ],
          [
            -87.53363943634776,
            41.639385929802955
          ],
          [
            -87.5268380196614,
            41.634106346516546
          ],
          [
            -87.5264140130368,
            41.6337465359137
          ],
          [
            -87.52573924459912,
            41.633148606454256
          ],
          [
            -87.52523300593896,
            41.632722235124874
          ],
          [
            -87.52473859834603,
            41.632358371207424
          ],
          [
            -87.52437147405693,
            41.63201638618733
          ],
          [
            -87.52412855006729,
            41.63185828390771
          ],
          [
            -87.52385094333101,
            41.63173837424323
          ],
          [
            -87.52355501613992,
            41.63165269772756
          ],
          [
            -87.52031354032889,
            41.63110484893613
          ],
          [
            -87.51996510320366,
            41.6310070563716
          ],
          [
            -87.51965943746185,
            41.63088049171946
          ],
          [
            -87.51938585025732,
            41.63070437500453
          ],
          [
            -87.5191550344351,
            41.63050907680726
          ],
          [
            -87.51898098621504,
            41.63028059242521
          ],
          [
            -87.51885714661076,
            41.63003932031305
          ],
          [
            -87.51877162834157,
            41.62977852042549
          ],
          [
            -87.51874502774274,
            41.62951688558957
          ],
          [
            -87.51894975556687,
            41.62513485288457
          ],
          [
            -87.51909294208902,
            41.62214155633501
          ],
          [
            -87.5191476242348,
            41.621786316653754
          ],
          [
            -87.51926325677118,
            41.62143402123377
          ],
          [
            -87.51992409542905,
            41.61999667335746
          ],
          [
            -87.52001461739918,
            41.61967535040357
          ],
          [
            -87.52004892310147,
            41.61934208567354
          ],
          [
            -87.5200355731784,
            41.61901362551755
          ],
          [
            -87.51997528745984,
            41.61868363029092
          ],
          [
            -87.51920807679616,
            41.61557802460658
          ],
          [
            -87.5188643153115,
            41.6140667973786
          ],
          [
            -87.51875131157816,
            41.61350469767254
          ],
          [
            -87.51866452831169,
            41.61286005905487
          ],
          [
            -87.51861635073325,
            41.61216481686583
          ],
          [
            -87.51859271815547,
            41.60104220048886
          ],
          [
            -87.51853547270244,
            41.59776924367077
          ],
          [
            -87.51850245003301,
            41.58057281506851
          ],
          [
            -87.51848027072894,
            41.579764162536094
          ],
          [
            -87.51848063250598,
            41.57836022522007
          ],
          [
            -87.51852997012583,
            41.57538952096641
          ],
          [
            -87.5185594430066,
            41.57446215422167
          ],
          [
            -87.51852339113105,
            41.56259541185811
          ],
          [
            -87.51855953349413,
            41.56106841079922
          ],
          [
            -87.51852751142607,
            41.55309429865753
          ],
          [
            -87.51847874371128,
            41.552496570187174
          ],
          [
            -87.5180779817113,
            41.550440395640464
          ],
          [
            -87.5180300050203,
            41.55006492049196
          ],
          [
            -87.51800619676705,
            41.54652004100507
          ],
          [
            -87.5178907697338,
            41.54467064800724
          ],
          [
            -87.51786958357613,
            41.53042743429117
          ],
          [
            -87.51784201116186,
            41.52983900707005
          ],
          [
            -87.51784136656572,
            41.525688994285346
          ],
          [
            -87.5178694846983,
            41.525171186738824
          ],
          [
            -87.51786889672717,
            41.52300292509145
          ]
        ],
        "type": "LineString"
      }
    }
  ]
}