{
  "type": "FeatureCollection",
  "features": [
    {
      "type": "Feature",
      "geometry": {
        "type": "LineString",
        "coordinates": [
          [
            -73.5984814196038,
            45.7297163312318,
            0
          ],
          [
            -73.59943382036708,
            45.72882249594866,
            0
          ],
          [
            -73.59956377849424,
            45.7286985845496,
            0
          ],
          [
            -73.5997000752496,
            45.72856139685604,
            0
          ],
          [
            -73.5998332016407,
            45.72842199629491,
            0
          ],
          [
            -73.59996544494244,
            45.72826051208083,
            0
          ],
          [
            -73.60099019345746,
            45.72686728688504,
            0
          ],
          [
            -73.6011295993385,
            45.72668471993218,
            0
          ],
          [
            -73.601311479511,
            45.72646330715274,
            0
          ],
          [
            -73.60149470072484,
            45.72626718774278,
            0
          ],
          [
            -73.6017285793292,
            45.72603010667134,
            0
          ],
          [
            -73.60254387727645,
            45.7252647598018,
            0
          ],
          [
            -73.60299284639538,
            45.72479687827845,
            0
          ],
          [
            -73.60668602919279,
            45.7213260965027,
            0
          ],
          [
            -73.60688002709908,
            45.72112269476427,
            0
          ],
          [
            -73.607066075803,
            45.72087081515586,
            0
          ],
          [
            -73.6071675213521,
            45.72062259424252,
            0
          ],
          [
            -73.60722178003215,
            45.72031560170509,
            0
          ],
          [
            -73.60721422419495,
            45.72008978225437,
            0
          ],
          [
            -73.60715059290871,
            45.71983838294976,
            0
          ],
          [
            -73.60703446738158,
            45.71959810055645,
            0
          ],
          [
            -73.60682908217188,
            45.7193317290111,
            0
          ],
          [
            -73.60663079679408,
            45.71914305493608,
            0
          ],
          [
            -73.60635254775694,
            45.71894185255951,
            0
          ],
          [
            -73.60608474582283,
            45.71880428163296,
            0
          ],
          [
            -73.60583357780932,
            45.71870701057983,
            0
          ],
          [
            -73.60554366919501,
            45.71861614657539,
            0
          ],
          [
            -73.60528507064414,
            45.7185668962811,
            0
          ],
          [
            -73.60501667391313,
            45.71852255940667,
            0
          ],
          [
            -73.60476275482468,
            45.7184917701434,
            0
          ],
          [
            -73.57640831620647,
            45.7150544195082,
            0
          ],
          [
            -73.57540526326605,
            45.71493855203861,
            0
          ],
          [
            -73.57436388257491,
            45.71490008853953,
            0
          ],
          [
            -73.57322808286273,
            45.71489030043388,
            0
          ],
          [
            -73.57213457738251,
            45.7149378218626,
            0
          ],
          [
            -73.57113779818502,
            45.71505324136151,
            0
          ],
          [
            -73.57017935479819,
            45.71518975586039,
            0
          ],
          [
            -73.56923997983517,
            45.71538834791222,
            0
          ],
          [
            -73.56834691484714,
            45.71559876042423,
            0
          ],
          [
            -73.51090904410586,
            45.73119305030788,
            0
          ],
          [
            -73.51064497787071,
            45.73125384162164,
            0
          ],
          [
            -73.51039904632195,
            45.73130463685602,
            0
          ],
          [
            -73.51013614920629,
            45.73134478077996,
            0
          ],
          [
            -73.50988768050404,
            45.73137672459884,
            0
          ],
          [
            -73.50960615378203,
            45.73140308967994,
            0
          ],
          [
            -73.50937554050371,
            45.7314177936655,
            0
          ],
          [
            -73.50912191009687,
            45.73142357322184,
            0
          ],
          [
            -73.50890498361666,
            45.73142162692438,
            0
          ],
          [
            -73.5072555066918,
            45.73135130339388,
            0
          ],
          [
            -73.50689057415755,
            45.73134197314484,
            0
          ],
          [
            -73.50652199803383,
            45.73134167649789,
            0
          ],
          [
            -73.5061814785719,
            45.73136402981481,
            0
          ],
          [
            -73.50585367406035,
            45.73140479031887,
            0
          ],
          [
            -73.50551251127149,
            45.73147374587195,
            0
          ],
          [
            -73.50520407455011,
            45.73155327988392,
            0
          ],
          [
            -73.50488390410398,
            45.73166326365208,
            0
          ],
          [
            -73.50458091834008,
            45.73180092929629,
            0
          ],
          [
            -73.5042811435883,
            45.73195316014759,
            0
          ],
          [
            -73.50401049283589,
            45.7321212230775,
            0
          ],
          [
            -73.50376038347858,
            45.7323288551245,
            0
          ],
          [
            -73.5035425824302,
            45.73253408190664,
            0
          ],
          [
            -73.50333594263955,
            45.73280313965329,
            0
          ],
          [
            -73.50317980959517,
            45.7330677377143,
            0
          ],
          [
            -73.50304751389186,
            45.73338057151685,
            0
          ],
          [
            -73.50295649451185,
            45.73370517296529,
            0
          ],
          [
            -73.5022090101271,
            45.73748635137689,
            0
          ],
          [
            -73.50210816693152,
            45.73785416790891,
            0
          ],
          [
            -73.50194410708909,
            45.73821941204553,
            0
          ],
          [
            -73.50172341656594,
            45.73858024107203,
            0
          ],
          [
            -73.50147077651226,
            45.73891052597855,
            0
          ],
          [
            -73.50111241775095,
            45.73928896295247,
            0
          ],
          [
            -73.50072681039904,
            45.73962440895944,
            0
          ],
          [
            -73.50025011868091,
            45.73993755038008,
            0
          ],
          [
            -73.49977336694404,
            45.74020619298427,
            0
          ],
          [
            -73.4991715064124,
            45.74046409717915,
            0
          ],
          [
            -73.49861028863293,
            45.74065024296416,
            0
          ],
          [
            -73.49796343865911,
            45.74081001548106,
            0
          ],
          [
            -73.49734476396486,
            45.74091119575278,
            0
          ],
          [
            -73.49673562059647,
            45.74096196612543,
            0
          ],
          [
            -73.49610303495707,
            45.74097170702231,
            0
          ],
          [
            -73.49551320159811,
            45.74094033331729,
            0
          ],
          [
            -73.49503952278287,
            45.74088447225659,
            0
          ],
          [
            -73.48825439911141,
            45.73987295024583,
            0
          ],
          [
            -73.48789843634944,
            45.73978998710043,
            0
          ],
          [
            -73.4875291961352,
            45.73968141135592,
            0
          ],
          [
            -73.48723973245895,
            45.73956195965867,
            0
          ],
          [
            -73.48695393324974,
            45.73941323485915,
            0
          ],
          [
            -73.48668175536517,
            45.73924395932599,
            0
          ],
          [
            -73.48646055155504,
            45.73908014712055,
            0
          ],
          [
            -73.48626651868959,
            45.73889272508687,
            0
          ],
          [
            -73.48613410998608,
            45.7387455288825,
            0
          ],
          [
            -73.48601252251459,
            45.73855958218563,
            0
          ],
          [
            -73.4859149945463,
            45.73839096774194,
            0
          ],
          [
            -73.48582806280425,
            45.73819834672305,
            0
          ],
          [
            -73.48576919603497,
            45.73803261071974,
            0
          ],
          [
            -73.4857320419821,
            45.73784516328352,
            0
          ],
          [
            -73.48573220868798,
            45.73767862209192,
            0
          ],
          [
            -73.48573880310155,
            45.73750551889272,
            0
          ],
          [
            -73.48575677586406,
            45.7373263761669,
            0
          ],
          [
            -73.4864402049796,
            45.73295604281176,
            0
          ],
          [
            -73.48650228378908,
            45.73240161883889,
            0
          ],
          [
            -73.48702476055695,
            45.72908512488965,
            0
          ],
          [
            -73.48712200528436,
            45.72830415106467,
            0
          ],
          [
            -73.48851129906924,
            45.7195295987392,
            0
          ],
          [
            -73.4885420474246,
            45.71922500776709,
            0
          ],
          [
            -73.48856446971551,
            45.71892102136379,
            0
          ],
          [
            -73.48856807700638,
            45.71865352400325,
            0
          ],
          [
            -73.48855723943205,
            45.71837976049111,
            0
          ],
          [
            -73.48853791015864,
            45.71817838190029,
            0
          ],
          [
            -73.4885105928771,
            45.71796351729303,
            0
          ],
          [
            -73.4884786744827,
            45.71778556381507,
            0
          ],
          [
            -73.48843675478754,
            45.7175869972225,
            0
          ],
          [
            -73.4862885150008,
            45.70878808071551,
            0
          ],
          [
            -73.48624097422567,
            45.70856804166984,
            0
          ],
          [
            -73.48620428412623,
            45.70834339940081,
            0
          ],
          [
            -73.48617425074966,
            45.708147732801,
            0
          ],
          [
            -73.48614969687196,
            45.70794220015253,
            0
          ],
          [
            -73.4853953926643,
            45.70051397683568,
            0
          ],
          [
            -73.48539036242929,
            45.69998494208379,
            0
          ],
          [
            -73.48542728179515,
            45.69950669732896,
            0
          ],
          [
            -73.48550504802975,
            45.69903785262647,
            0
          ],
          [
            -73.48560756527488,
            45.69856709231416,
            0
          ],
          [
            -73.48573090469715,
            45.69815105096791,
            0
          ],
          [
            -73.48586099031183,
            45.69779474264423,
            0
          ],
          [
            -73.48603833747798,
            45.69742098923795,
            0
          ],
          [
            -73.48628460147778,
            45.69700346243825,
            0
          ],
          [
            -73.48648339425195,
            45.69666044822722,
            0
          ],
          [
            -73.48671112559643,
            45.69633938408006,
            0
          ],
          [
            -73.48696628247389,
            45.69602989515208,
            0
          ],
          [
            -73.48724741210602,
            45.69573136801384,
            0
          ],
          [
            -73.48750957225269,
            45.69547564568347,
            0
          ],
          [
            -73.4877956218005,
            45.69520408679828,
            0
          ],
          [
            -73.48809701782392,
            45.69496427837143,
            0
          ],
          [
            -73.48850039465887,
            45.69462106326235,
            0
          ],
          [
            -73.48896285050122,
            45.69426907958481,
            0
          ],
          [
            -73.48954910460073,
            45.69384166828556,
            0
          ],
          [
            -73.49001374609136,
            45.69348551242818,
            0
          ],
          [
            -73.49051827947385,
            45.69302383332848,
            0
          ],
          [
            -73.49102656451562,
            45.69253655423686,
            0
          ],
          [
            -73.49141798091074,
            45.69206459542671,
            0
          ],
          [
            -73.49173822939255,
            45.69162366795256,
            0
          ],
          [
            -73.49204034029847,
            45.69110986400744,
            0
          ],
          [
            -73.4923027695496,
            45.69054328128542,
            0
          ],
          [
            -73.49248741094473,
            45.69007991636617,
            0
          ],
          [
            -73.49261931491975,
            45.68966935566158,
            0
          ],
          [
            -73.49278769324638,
            45.68910304613291,
            0
          ],
          [
            -73.49283445809631,
            45.68893675386491,
            0
          ],
          [
            -73.4928745452525,
            45.68876182485794,
            0
          ],
          [
            -73.49292931215487,
            45.68853424271575,
            0
          ],
          [
            -73.49297485374767,
            45.68832414237701,
            0
          ],
          [
            -73.49310709767254,
            45.68753195619089,
            0
          ],
          [
            -73.49312116068721,
            45.68742055024242,
            0
          ],
          [
            -73.4937289749989,
            45.67986558320965,
            0
          ],
          [
            -73.49379428499917,
            45.6796020123401,
            0
          ],
          [
            -73.49387446393457,
            45.67936449929982,
            0
          ],
          [
            -73.49398086325823,
            45.67911789078417,
            0
          ],
          [
            -73.49412480461828,
            45.67885085206266,
            0
          ],
          [
            -73.49425029774713,
            45.67866895846196,
            0
          ],
          [
            -73.4944005012192,
            45.67847711862087,
            0
          ],
          [
            -73.49455053317621,
            45.67830870385274,
            0
          ],
          [
            -73.49475985561155,
            45.67809893044735,
            0
          ],
          [
            -73.49491500441415,
            45.67794444586485,
            0
          ],
          [
            -73.49508955504544,
            45.67779364394087,
            0
          ],
          [
            -73.49524853075432,
            45.67765929402966,
            0
          ],
          [
            -73.4954175573931,
            45.67752906073856,
            0
          ],
          [
            -73.49567604332792,
            45.67736807106513,
            0
          ],
          [
            -73.49597531048178,
            45.67720708437448,
            0
          ],
          [
            -73.49628253574481,
            45.67706056825958,
            0
          ],
          [
            -73.49662097347276,
            45.67692042896618,
            0
          ],
          [
            -73.49693125144181,
            45.67681200398745,
            0
          ],
          [
            -73.49727823000228,
            45.6767010152016,
            0
          ],
          [
            -73.4976095768363,
            45.67660296759595,
            0
          ],
          [
            -73.49797533835417,
            45.67650512470298,
            0
          ],
          [
            -73.51878733334368,
            45.67199798225961,
            0
          ],
          [
            -73.51935216865397,
            45.67187130124349,
            0
          ],
          [
            -73.51992804356148,
            45.67171854841133,
            0
          ],
          [
            -73.52045924185838,
            45.67156456221596,
            0
          ],
          [
            -73.52101616523117,
            45.67136621287752,
            0
          ],
          [
            -73.5215642462607,
            45.67115991631338,
            0
          ],
          [
            -73.52203567112728,
            45.67095204933388,
            0
          ],
          [
            -73.52251421578535,
            45.67071969757403,
            0
          ],
          [
            -73.52297174094208,
            45.67045761989491,
            0
          ],
          [
            -73.54205734636692,
            45.65890111012372,
            0
          ],
          [
            -73.54250489125886,
            45.65859792780122,
            0
          ],
          [
            -73.54297823932586,
            45.65826212576291,
            0
          ],
          [
            -73.60692033054652,
            45.61014096688395,
            0
          ],
          [
            -73.60771352453958,
            45.60952709077969,
            0
          ],
          [
            -73.60852680255277,
            45.60880363438658,
            0
          ],
          [
            -73.6092031334923,
            45.60811192485575,
            0
          ],
          [
            -73.60988556075301,
            45.60731263862439,
            0
          ],
          [
            -73.61947786054789,
            45.5958793978963,
            0
          ],
          [
            -73.62000078110873,
            45.59522173249255,
            0
          ],
          [
            -73.64442852868946,
            45.5661028760639,
            0
          ],
          [
            -73.64457529967964,
            45.56591389769041,
            0
          ],
          [
            -73.64473601436872,
            45.56570759695618,
            0
          ],
          [
            -73.6448657928317,
            45.56552436820011,
            0
          ],
          [
            -73.64498408822027,
            45.5653619870176,
            0
          ],
          [
            -73.64513935139476,
            45.56514430423513,
            0
          ],
          [
            -73.64527065552221,
            45.56494953915635,
            0
          ],
          [
            -73.64540153840213,
            45.56473976249685,
            0
          ],
          [
            -73.6455209198596,
            45.56454397932923,
            0
          ],
          [
            -73.66154522310508,
            45.53704011644886,
            0
          ],
          [
            -73.6618270100844,
            45.53650237011618,
            0
          ],
          [
            -73.66556478448717,
            45.53007926383017,
            0
          ],
          [
            -73.66583755192556,
            45.52955710095566,
            0
          ],
          [
            -73.66766357626015,
            45.52643077706764,
            0
          ],
          [
            -73.66779955889844,
            45.52609404628971,
            0
          ],
          [
            -73.66787769266753,
            45.52585107982241,
            0
          ],
          [
            -73.66792795674456,
            45.52561749531026,
            0
          ],
          [
            -73.66794380316388,
            45.52539276531107,
            0
          ],
          [
            -73.66793197701548,
            45.52514905752907,
            0
          ],
          [
            -73.66789618834699,
            45.52497452909901,
            0
          ],
          [
            -73.66783620077602,
            45.52478606706192,
            0
          ],
          [
            -73.66775480855152,
            45.52459765755187,
            0
          ],
          [
            -73.66766125133016,
            45.52441557491928,
            0
          ],
          [
            -73.66753264647785,
            45.52422222592766,
            0
          ],
          [
            -73.66738790115339,
            45.524046884055,
            0
          ],
          [
            -73.66723377518291,
            45.52387731983241,
            0
          ],
          [
            -73.66704244985378,
            45.52370286054228,
            0
          ],
          [
            -73.6668721816455,
            45.52356959499538,
            0
          ],
          [
            -73.66668614510198,
            45.52344479078457,
            0
          ],
          [
            -73.66650460661366,
            45.52333756921346,
            0
          ],
          [
            -73.66630838963506,
            45.52323979135006,
            0
          ],
          [
            -73.66505997709062,
            45.52289380056,
            0
          ],
          [
            -73.66277461448462,
            45.52224220045769,
            0
          ]
        ]
      },
      "properties": {
        "name": "Mascouche line",
        "title": "Mascouche line",
        "styleUrl": "#m_ylw-pushpin",
        "styleHash": "-f3a93a8",
        "styleMapHash": {
          "normal": "#s_ylw-pushpin",
          "highlight": "#s_ylw-pushpin_hl"
        },
        "icon": "http://maps.google.com/mapfiles/kml/pushpin/ylw-pushpin.png",
        "stroke": "#cc5599",
        "stroke-opacity": 1,
        "stroke-width": 3,
        "license": "CC0-1.0",
        "description": "Mascouche line",
        "source": "Copied from [https://en.wikipedia.org/wiki/Template:Attached_KML/Mascouche_line]"
      }
    }
  ]
}