{"type":"FeatureCollection","features":[{"type":"Feature","geometry":{"type":"LineString","coordinates":[[-77.009976,38.888209],[-77.01001,38.888096],[-77.010055,38.887988],[-77.01011,38.887886],[-77.010177,38.887785],[-77.010246,38.887698],[-77.010322,38.887616],[-77.01052,38.887422]]},"properties":{"@id":"way/892894550","layer":"-1","name":"House Capitol Subway","railway":"light_rail","tunnel":"yes"},"id":"way/892894550"},{"type":"Feature","geometry":{"type":"LineString","coordinates":[[-77.008052,38.890866],[-77.00763,38.89166],[-77.007585,38.891732],[-77.007529,38.891799],[-77.007464,38.89186],[-77.007391,38.891916],[-77.007309,38.891964],[-77.007221,38.892004],[-77.007128,38.892036],[-77.00703,38.89206],[-77.00693,38.892075],[-77.006827,38.89208],[-77.005917,38.892113],[-77.005882,38.892111],[-77.005749,38.892107],[-77.005586,38.892094],[-77.005414,38.892093],[-77.004934,38.892115],[-77.004829,38.89213],[-77.004728,38.892154],[-77.00463,38.892187],[-77.004538,38.892228],[-77.004453,38.892278],[-77.004375,38.892336],[-77.004309,38.892398],[-77.004251,38.892466],[-77.004203,38.892541],[-77.004166,38.89262]]},"properties":{"@id":"way/892894556","layer":"-2","name":"Senate Capitol Subway","railway":"light_rail","tunnel":"yes"},"id":"way/892894556"},{"type":"Feature","geometry":{"type":"LineString","coordinates":[[-77.008133,38.890952],[-77.008177,38.890884],[-77.008233,38.890821],[-77.00829,38.89077],[-77.008403,38.890681]]},"properties":{"@id":"way/904356711","layer":"-1","name":"Senate Capitol Subway","railway":"light_rail","tunnel":"yes"},"id":"way/904356711"},{"type":"Feature","geometry":{"type":"LineString","coordinates":[[-77.004166,38.89262],[-77.00414,38.8927],[-77.004125,38.892782],[-77.004105,38.892923]]},"properties":{"@id":"way/984542737","layer":"-2","name":"Senate Capitol Subway","railway":"light_rail","tunnel":"yes"},"id":"way/984542737"},{"type":"Feature","geometry":{"type":"LineString","coordinates":[[-77.004166,38.89262],[-77.004158,38.89269],[-77.004165,38.892784]]},"properties":{"@id":"way/984542738","layer":"-2","name":"Senate Capitol Subway","railway":"light_rail","service":"crossover","tunnel":"yes"},"id":"way/984542738"},{"type":"Feature","geometry":{"type":"LineString","coordinates":[[-77.004165,38.892784],[-77.004176,38.892705],[-77.0042,38.892627],[-77.004234,38.892552],[-77.00428,38.892481],[-77.004336,38.892414],[-77.004402,38.892353],[-77.004476,38.892298],[-77.004558,38.892251],[-77.004646,38.892211],[-77.00474,38.892179],[-77.004838,38.892156],[-77.004938,38.892142],[-77.00504,38.892137],[-77.005646,38.892141],[-77.005758,38.892134],[-77.005915,38.89214],[-77.006829,38.892107],[-77.006933,38.892101],[-77.007037,38.892086],[-77.007139,38.892062],[-77.007238,38.892028],[-77.007329,38.891986],[-77.007414,38.891936],[-77.00749,38.891878],[-77.007558,38.891814],[-77.007616,38.891744],[-77.007662,38.89167],[-77.008022,38.890983],[-77.008034,38.890947],[-77.008044,38.890895],[-77.008052,38.890866]]},"properties":{"@id":"way/984542739","layer":"-2","name":"Senate Capitol Subway","railway":"light_rail","tunnel":"yes"},"id":"way/984542739"},{"type":"Feature","geometry":{"type":"LineString","coordinates":[[-77.008364,38.890653],[-77.008254,38.890743],[-77.008199,38.890798],[-77.008141,38.890873],[-77.008102,38.890941]]},"properties":{"@id":"way/984542741","layer":"-1","name":"Senate Capitol Subway","railway":"light_rail","tunnel":"yes"},"id":"way/984542741"},{"type":"Feature","geometry":{"type":"LineString","coordinates":[[-77.010469,38.887394],[-77.010219,38.887684],[-77.010147,38.887772],[-77.010078,38.887874],[-77.010022,38.887979],[-77.009976,38.888088],[-77.009942,38.888204]]},"properties":{"@id":"way/984551122","layer":"-1","name":"House Capitol Subway","railway":"light_rail","tunnel":"yes"},"id":"way/984551122"},{"type":"Feature","geometry":{"type":"LineString","coordinates":[[-77.004165,38.892784],[-77.004164,38.892925]]},"properties":{"@id":"way/1079941296","layer":"-2","name":"Senate Capitol Subway","railway":"light_rail","tunnel":"yes"},"id":"way/1079941296"},{"type":"Feature","geometry":{"type":"LineString","coordinates":[[-77.00828,38.890593],[-77.008125,38.890737],[-77.0081,38.890767],[-77.008082,38.890798],[-77.008068,38.890827],[-77.008052,38.890866]]},"properties":{"@id":"way/1079941297","layer":"-2","name":"Senate Capitol Subway","railway":"light_rail","tunnel":"yes"},"id":"way/1079941297"},{"type":"Feature","geometry":{"type":"LineString","coordinates":[[-77.007608,38.892097],[-77.007658,38.891884],[-77.007691,38.891794],[-77.008133,38.890952]]},"properties":{"@id":"way/1408692259","layer":"-1","name":"Senate Capitol Subway","railway":"light_rail","tunnel":"yes"},"id":"way/1408692259"},{"type":"Feature","geometry":{"type":"LineString","coordinates":[[-77.008102,38.890941],[-77.007619,38.89186],[-77.007581,38.891958],[-77.00755,38.892089]]},"properties":{"@id":"way/1408692260","layer":"-1","name":"Senate Capitol Subway","railway":"light_rail","tunnel":"yes"},"id":"way/1408692260"},{"type":"Feature","geometry":{"type":"LineString","coordinates":[[-77.009843,38.888925],[-77.009893,38.888579],[-77.009976,38.888209]]},"properties":{"@id":"way/1408692261","layer":"-1","name":"House Capitol Subway","railway":"light_rail","tunnel":"yes"},"id":"way/1408692261"},{"type":"Feature","geometry":{"type":"LineString","coordinates":[[-77.009942,38.888204],[-77.009783,38.888917]]},"properties":{"@id":"way/1408692262","layer":"-1","name":"House Capitol Subway","railway":"light_rail","tunnel":"yes"},"id":"way/1408692262"},{"type":"Feature","geometry":{"type":"Point","coordinates":[-77.009823,38.888864]},"properties":{"@id":"node/8298735559","access":"private","light_rail":"yes","location":"underground","name":"U.S. Capitol","name:es":"Capitolio de los Estados Unidos","network":"United States Capitol Subway System","network:wikidata":"Q1126034","operator":"Architect of the Capitol","operator:wikidata":"Q635012","public_transport":"station","railway":"station","station":"light_rail","subway":"yes"},"id":"node/8298735559"},{"type":"Feature","geometry":{"type":"Point","coordinates":[-77.005616,38.89213]},"properties":{"@id":"node/8398794687","access":"private","light_rail":"yes","location":"underground","name":"Dirksen","network":"United States Capitol Subway System","network:wikidata":"Q1126034","operator":"Architect of the Capitol","operator:wikidata":"Q635012","public_transport":"station","railway":"station","station":"light_rail","subway":"yes"},"id":"node/8398794687"},{"type":"Feature","geometry":{"type":"Point","coordinates":[-77.010453,38.887454]},"properties":{"@id":"node/8398794703","access":"private","layer":"-1","light_rail":"yes","location":"underground","name":"Rayburn","network":"United States Capitol Subway System","network:wikidata":"Q1126034","operator":"Architect of the Capitol","operator:wikidata":"Q635012","public_transport":"station","railway":"station","station":"light_rail","subway":"yes"},"id":"node/8398794703"},{"type":"Feature","geometry":{"type":"Point","coordinates":[-77.007591,38.892043]},"properties":{"@id":"node/8398832934","access":"private","light_rail":"yes","location":"underground","name":"Russell","network":"United States Capitol Subway System","network:wikidata":"Q1126034","operator":"Architect of the Capitol","operator:wikidata":"Q635012","public_transport":"station","railway":"station","station":"light_rail","subway":"yes"},"id":"node/8398832934"},{"type":"Feature","geometry":{"type":"Point","coordinates":[-77.004178,38.892886]},"properties":{"@id":"node/9102472685","access":"private","light_rail":"yes","location":"underground","name":"Hart","network":"United States Capitol Subway System","network:wikidata":"Q1126034","operator":"Architect of the Capitol","operator:wikidata":"Q635012","public_transport":"station","railway":"station","station":"light_rail","subway":"yes"},"id":"node/9102472685"},{"type":"Feature","geometry":{"type":"Point","coordinates":[-77.008299,38.890677]},"properties":{"@id":"node/9102472707","access":"private","light_rail":"yes","location":"underground","name":"U.S. Capitol","name:es":"Capitolio de los Estados Unidos","network":"United States Capitol Subway System","network:wikidata":"Q1126034","operator":"Architect of the Capitol","operator:wikidata":"Q635012","public_transport":"station","railway":"station","station":"light_rail","subway":"yes"},"id":"node/9102472707"}]}