{"type":"FeatureCollection","features":[{"type":"Feature","geometry":{"type":"Polygon","coordinates":[[[109.492307,18.280061],[109.49214,18.280342],[109.492088,18.280343],[109.49206,18.280299],[109.492227,18.280018],[109.492284,18.280013],[109.492307,18.280061]]]},"properties":{"@id":"way/645947810","building":"yes","layer":"1","light_rail":"yes","name":"三亚河东路","name:en":"Sanya River East Road","name:zh":"三亚河东路","network":"三亚轨道交通","operator":"三亚市轨道交通有限公司","public_transport":"station","railway":"station","station":"light_rail"},"id":"way/645947810"},{"type":"Feature","geometry":{"type":"Polygon","coordinates":[[[109.490761,18.266698],[109.490975,18.266437],[109.491033,18.266443],[109.491049,18.266492],[109.490836,18.266753],[109.490782,18.266744],[109.490761,18.266698]]]},"properties":{"@id":"way/1085164756","building":"yes","layer":"1","light_rail":"yes","name":"友谊街","name:en":"Youyi Street","name:zh":"友谊街","network":"三亚市轨道交通","operator":"三亚市轨道交通有限公司","public_transport":"station","railway":"station","station":"light_rail"},"id":"way/1085164756"},{"type":"Feature","geometry":{"type":"Polygon","coordinates":[[[109.501738,18.236943],[109.501822,18.236624],[109.501872,18.236609],[109.501901,18.236643],[109.501816,18.236962],[109.501771,18.236978],[109.501738,18.236943]]]},"properties":{"@id":"way/1085164771","building":"yes","layer":"1","light_rail":"yes","name":"建港路","name:en":"Jiangang Road","name:zh":"建港路","network":"三亚轨道交通","operator":"三亚市轨道交通有限公司","public_transport":"station","railway":"station","station":"light_rail"},"id":"way/1085164771"},{"type":"Feature","geometry":{"type":"Polygon","coordinates":[[[109.488124,18.297477],[109.488124,18.29735],[109.488549,18.297349],[109.488549,18.297477],[109.488124,18.297477]]]},"properties":{"@id":"way/1085164787","building":"yes","layer":"1","light_rail":"yes","name":"三亚火车站","name:en":"Sanya Railway Station","name:zh":"三亚火车站","network":"三亚轨道交通","operator":"三亚市轨道交通有限公司","public_transport":"station","railway":"station","station":"light_rail"},"id":"way/1085164787"},{"type":"Feature","geometry":{"type":"Polygon","coordinates":[[[109.492657,18.26447],[109.492559,18.264394],[109.492885,18.264014],[109.493121,18.263717],[109.49324,18.263561],[109.49338,18.263368],[109.493355,18.26335],[109.493705,18.262852],[109.493804,18.262915],[109.493294,18.263612],[109.493176,18.263761],[109.492944,18.264045],[109.492988,18.264078],[109.492657,18.26447]]]},"properties":{"@id":"way/1203507644","light_rail":"yes","name":"迎宾路","name:en":"Yingbin Road","name:zh":"迎宾路","network":"三亚轨道交通","operator":"三亚市轨道交通有限公司","public_transport":"station","railway":"station","station":"light_rail"},"id":"way/1203507644"},{"type":"Feature","geometry":{"type":"Polygon","coordinates":[[[109.488345,18.269655],[109.489185,18.268615],[109.489255,18.268666],[109.488415,18.269706],[109.488345,18.269655]]]},"properties":{"@id":"way/1203507646","light_rail":"yes","name":"金鸡岭街","name:en":"Jinjiling Street","name:zh":"金鸡岭街","network":"三亚轨道交通","operator":"三亚市轨道交通有限公司","public_transport":"station","railway":"station","station":"light_rail"},"id":"way/1203507646"},{"type":"Feature","geometry":{"type":"Polygon","coordinates":[[[109.48703,18.272213],[109.487117,18.272139],[109.487814,18.272875],[109.487843,18.27285],[109.488138,18.273161],[109.488052,18.273234],[109.487352,18.272496],[109.487323,18.272521],[109.48703,18.272213]]]},"properties":{"@id":"way/1203507647","light_rail":"yes","name":"解放路","name:en":"Jiefang Road","name:zh":"解放路","network":"三亚轨道交通","operator":"三亚市轨道交通有限公司","public_transport":"station","railway":"station","station":"light_rail"},"id":"way/1203507647"},{"type":"Feature","geometry":{"type":"Polygon","coordinates":[[[109.48894,18.283896],[109.488871,18.283818],[109.489595,18.283234],[109.489584,18.283221],[109.489954,18.282919],[109.490018,18.28299],[109.489317,18.283557],[109.489336,18.283581],[109.48894,18.283896]]]},"properties":{"@id":"way/1203507649","light_rail":"yes","name":"水城路","name:en":"Shuicheng Road","name:zh":"解放路","network":"三亚轨道交通","operator":"三亚市轨道交通有限公司","public_transport":"station","railway":"station","station":"light_rail"},"id":"way/1203507649"},{"type":"Feature","geometry":{"type":"Polygon","coordinates":[[[109.484446,18.290033],[109.484545,18.289637],[109.484612,18.289386],[109.484658,18.289231],[109.484717,18.289041],[109.48468,18.289029],[109.48482,18.288638],[109.484924,18.288673],[109.484718,18.289241],[109.484678,18.289392],[109.484613,18.289652],[109.48464,18.289658],[109.48455,18.290055],[109.484446,18.290033]]]},"properties":{"@id":"way/1203507650","light_rail":"yes","name":"凤凰路","name:en":"Fenghuang Road","name:zh":"凤凰路","network":"三亚轨道交通","operator":"三亚市轨道交通有限公司","public_transport":"station","railway":"station","station":"light_rail"},"id":"way/1203507650"},{"type":"Feature","geometry":{"type":"Polygon","coordinates":[[[109.482939,18.296917],[109.48303,18.296457],[109.483137,18.295998],[109.483094,18.295993],[109.483223,18.295409],[109.483334,18.295431],[109.483097,18.29646],[109.483127,18.296461],[109.483036,18.296934],[109.482939,18.296917]]]},"properties":{"@id":"way/1203507656","light_rail":"yes","name":"育秀路","name:en":"Yuxiu Road","name:zh":"育秀路","network":"三亚轨道交通","operator":"三亚市轨道交通有限公司","public_transport":"station","railway":"station","station":"light_rail"},"id":"way/1203507656"},{"type":"Feature","geometry":{"type":"Polygon","coordinates":[[[109.495595,18.25914],[109.495701,18.259165],[109.495574,18.259665],[109.495473,18.260048],[109.495509,18.260058],[109.495382,18.260497],[109.495278,18.260471],[109.495311,18.260369],[109.49541,18.260016],[109.495514,18.259603],[109.495484,18.259594],[109.495595,18.25914]]]},"properties":{"@id":"way/1203507659","light_rail":"yes","name":"吉祥街","name:en":"Jixiang Street","name:zh":"吉祥街","network":"三亚轨道交通","operator":"三亚市轨道交通有限公司","public_transport":"station","railway":"station","station":"light_rail"},"id":"way/1203507659"},{"type":"Feature","geometry":{"type":"Polygon","coordinates":[[[109.496597,18.255921],[109.49682,18.255299],[109.496869,18.255144],[109.496839,18.255136],[109.496961,18.254705],[109.497075,18.254735],[109.496903,18.255318],[109.496834,18.255507],[109.496858,18.255513],[109.496698,18.255952],[109.496597,18.255921]]]},"properties":{"@id":"way/1203507660","light_rail":"yes","name":"团结街","name:en":"Tuanjie Street","name:zh":"团结街","network":"三亚轨道交通","operator":"三亚市轨道交通有限公司","public_transport":"station","railway":"station","station":"light_rail"},"id":"way/1203507660"},{"type":"Feature","geometry":{"type":"Polygon","coordinates":[[[109.497506,18.252954],[109.497789,18.251995],[109.497759,18.251987],[109.497886,18.251556],[109.497992,18.251584],[109.497717,18.252517],[109.497742,18.252524],[109.497607,18.252981],[109.497506,18.252954]]]},"properties":{"@id":"way/1203507661","light_rail":"yes","name":"新风街","name:en":"Xinfeng Street","name:zh":"新风街","network":"三亚轨道交通","operator":"三亚市轨道交通有限公司","public_transport":"station","railway":"station","station":"light_rail"},"id":"way/1203507661"},{"type":"Feature","geometry":{"type":"Polygon","coordinates":[[[109.498833,18.248818],[109.49873,18.24879],[109.498933,18.248107],[109.498998,18.24784],[109.498962,18.247833],[109.499069,18.247376],[109.499183,18.2474],[109.499009,18.248125],[109.498933,18.24837],[109.498966,18.248378],[109.498833,18.248818]]]},"properties":{"@id":"way/1203507662","light_rail":"yes","name":"光明街","name:en":"Guangming Street","name:zh":"光明街","network":"三亚轨道交通","operator":"三亚市轨道交通有限公司","public_transport":"station","railway":"station","station":"light_rail"},"id":"way/1203507662"},{"type":"Feature","geometry":{"type":"Polygon","coordinates":[[[109.500258,18.24314],[109.500147,18.243112],[109.500397,18.242223],[109.500476,18.241928],[109.500437,18.241918],[109.50055,18.241485],[109.500661,18.241514],[109.50047,18.242241],[109.500361,18.242623],[109.500397,18.24263],[109.500258,18.24314]]]},"properties":{"@id":"way/1203507663","light_rail":"yes","name":"跃进街","name:en":"Yuejin Street","name:zh":"跃进街","network":"三亚轨道交通","operator":"三亚市轨道交通有限公司","public_transport":"station","railway":"station","station":"light_rail"},"id":"way/1203507663"},{"type":"Feature","geometry":{"type":"LineString","coordinates":[[109.406699,18.316042],[109.414198,18.316246]]},"properties":{"@id":"way/108671012","alt_name":"粤海铁路;海南西环线","alt_name:zh":"粤海铁路;海南西环线","electrified":"no","gauge":"1435","layer":"-1","maxspeed":"120","name":"西环货线","name:en":"Hainan Western Ring Railway","name:zh":"西环货线","passenger_lines":"1","railway":"rail","railway:traffic_mode":"mixed","ref":"0721","tunnel":"yes","usage":"main"},"id":"way/108671012"},{"type":"Feature","geometry":{"type":"LineString","coordinates":[[109.471796,18.298818],[109.472328,18.298805]]},"properties":{"@id":"way/108671031","alt_name":"海南环岛高铁线西段;海南环岛高铁西段","bridge":"yes","electrified":"contact_line","frequency":"50","gauge":"1435","highspeed":"yes","layer":"1","loc_name":"海南西环高速铁路","maxspeed":"200","name":"海南西环高速线","passenger_lines":"2","railway":"rail","railway:traffic_mode":"passenger","ref":"3059","start_date":"2015-12-30","tracks":"2","usage":"main","voltage":"25000"},"id":"way/108671031"},{"type":"Feature","geometry":{"type":"LineString","coordinates":[[109.428394,18.316612],[109.42938,18.316626],[109.430544,18.316527],[109.431888,18.316307],[109.433382,18.315957],[109.434447,18.315635],[109.436555,18.314907],[109.437162,18.31468],[109.437609,18.314527],[109.437868,18.314412],[109.43812,18.314292],[109.438365,18.314165],[109.438613,18.314031],[109.440018,18.313279]]},"properties":{"@id":"way/108671040","alt_name":"粤海铁路;海南西环线","alt_name:zh":"粤海铁路;海南西环线","electrified":"no","gauge":"1435","maxspeed":"120","name":"西环货线","name:en":"Hainan Western Ring Railway","name:zh":"西环货线","passenger_lines":"1","railway":"rail","railway:traffic_mode":"mixed","ref":"0721","usage":"main"},"id":"way/108671040"},{"type":"Feature","geometry":{"type":"LineString","coordinates":[[109.462121,18.301269],[109.4627,18.300964],[109.463183,18.300709],[109.463668,18.300462],[109.463996,18.300308],[109.464329,18.300157],[109.464692,18.300003],[109.46503,18.29987],[109.465409,18.299731],[109.465793,18.299603],[109.466376,18.29943],[109.466801,18.299316],[109.467231,18.299217],[109.467617,18.299139],[109.468003,18.299068],[109.468399,18.299008],[109.468791,18.298958],[109.469151,18.298922],[109.46951,18.298894],[109.469988,18.298865],[109.470465,18.298845],[109.471796,18.298818]]},"properties":{"@id":"way/108671063","alt_name":"海南环岛高铁线西段;海南环岛高铁西段","electrified":"contact_line","frequency":"50","gauge":"1435","highspeed":"yes","loc_name":"海南西环高速铁路","maxspeed":"200","name":"海南西环高速线","passenger_lines":"2","railway":"rail","railway:traffic_mode":"passenger","ref":"3059","start_date":"2015-12-30","tracks":"2","usage":"main","voltage":"25000"},"id":"way/108671063"},{"type":"Feature","geometry":{"type":"LineString","coordinates":[[109.414198,18.316246],[109.422325,18.316384]]},"properties":{"@id":"way/108671068","alt_name":"粤海铁路;海南西环线","alt_name:zh":"粤海铁路;海南西环线","electrified":"no","gauge":"1435","maxspeed":"120","name":"西环货线","name:en":"Hainan Western Ring Railway","name:zh":"西环货线","passenger_lines":"1","railway":"rail","railway:traffic_mode":"mixed","ref":"0721","usage":"main"},"id":"way/108671068"},{"type":"Feature","geometry":{"type":"LineString","coordinates":[[109.422325,18.316384],[109.428394,18.316612]]},"properties":{"@id":"way/108671089","alt_name":"粤海铁路;海南西环线","alt_name:zh":"粤海铁路;海南西环线","electrified":"no","gauge":"1435","layer":"-1","maxspeed":"120","name":"西环货线","name:en":"Hainan Western Ring Railway","name:zh":"西环货线","passenger_lines":"1","railway":"rail","railway:traffic_mode":"mixed","ref":"0721","tunnel":"yes","usage":"main"},"id":"way/108671089"},{"type":"Feature","geometry":{"type":"LineString","coordinates":[[109.594669,18.302962],[109.593778,18.302451],[109.586496,18.297834],[109.585583,18.297348]]},"properties":{"@id":"way/146893528","alt_name":"海南环岛高铁线东段;海南环岛高铁东段","electrified":"contact_line","frequency":"50","gauge":"1435","highspeed":"yes","layer":"-1","loc_name":"海南东环铁路","maxspeed":"250","name":"海南东环高速线","passenger_lines":"2","railway":"rail","railway:traffic_mode":"passenger","ref":"3018","start_date":"2010-12-30","tunnel":"yes","usage":"main","voltage":"25000"},"id":"way/146893528"},{"type":"Feature","geometry":{"type":"LineString","coordinates":[[109.546345,18.295094],[109.547493,18.294622],[109.549664,18.293843],[109.550787,18.293477],[109.552079,18.293114]]},"properties":{"@id":"way/146893530","alt_name":"海南环岛高铁线东段;海南环岛高铁东段","electrified":"contact_line","frequency":"50","gauge":"1435","highspeed":"yes","loc_name":"海南东环铁路","maxspeed":"250","name":"海南东环高速线","passenger_lines":"2","railway":"rail","railway:traffic_mode":"passenger","ref":"3018","start_date":"2010-12-30","usage":"main","voltage":"25000"},"id":"way/146893530"},{"type":"Feature","geometry":{"type":"LineString","coordinates":[[109.577193,18.293713],[109.574347,18.292909],[109.571296,18.292269],[109.568099,18.291815],[109.564742,18.291604],[109.56103,18.291698],[109.557836,18.291957],[109.554564,18.292537],[109.552079,18.293114]]},"properties":{"@id":"way/167120270","alt_name":"海南环岛高铁线东段;海南环岛高铁东段","electrified":"contact_line","frequency":"50","gauge":"1435","highspeed":"yes","layer":"-1","loc_name":"海南东环铁路","maxspeed":"250","name":"海南东环高速线","passenger_lines":"2","railway":"rail","railway:traffic_mode":"passenger","ref":"3018","start_date":"2010-12-30","tunnel":"yes","usage":"main","voltage":"25000"},"id":"way/167120270"},{"type":"Feature","geometry":{"type":"LineString","coordinates":[[109.585583,18.297348],[109.583912,18.296504],[109.582234,18.295634],[109.580512,18.294862],[109.579076,18.294326],[109.577193,18.293713]]},"properties":{"@id":"way/167120272","alt_name":"海南环岛高铁线东段;海南环岛高铁东段","electrified":"contact_line","frequency":"50","gauge":"1435","highspeed":"yes","loc_name":"海南东环铁路","maxspeed":"250","name":"海南东环高速线","passenger_lines":"2","railway":"rail","railway:traffic_mode":"passenger","ref":"3018","start_date":"2010-12-30","usage":"main","voltage":"25000"},"id":"way/167120272"},{"type":"Feature","geometry":{"type":"LineString","coordinates":[[109.443553,18.311164],[109.442839,18.311547]]},"properties":{"@id":"way/337507908","alt_name":"海南环岛高铁线西段;海南环岛高铁西段","electrified":"contact_line","frequency":"50","gauge":"1435","highspeed":"yes","loc_name":"海南西环高速铁路","maxspeed":"200","name":"海南西环高速线","passenger_lines":"2","railway":"rail","railway:traffic_mode":"passenger","ref":"3059","start_date":"2015-12-30","tracks":"2","usage":"main","voltage":"25000"},"id":"way/337507908"},{"type":"Feature","geometry":{"type":"LineString","coordinates":[[109.461194,18.301768],[109.462121,18.301269]]},"properties":{"@id":"way/477338074","alt_name":"海南环岛高铁线西段;海南环岛高铁西段","bridge":"yes","electrified":"contact_line","frequency":"50","gauge":"1435","highspeed":"yes","layer":"1","loc_name":"海南西环高速铁路","maxspeed":"200","name":"海南西环高速线","passenger_lines":"2","railway":"rail","railway:traffic_mode":"passenger","ref":"3059","start_date":"2015-12-30","tracks":"2","usage":"main","voltage":"25000"},"id":"way/477338074"},{"type":"Feature","geometry":{"type":"LineString","coordinates":[[109.443553,18.311164],[109.444224,18.310786]]},"properties":{"@id":"way/477338075","alt_name":"海南环岛高铁线西段;海南环岛高铁西段","electrified":"contact_line","frequency":"50","gauge":"1435","highspeed":"yes","loc_name":"海南西环高速铁路","maxspeed":"200","name":"海南西环高速线","passenger_lines":"2","railway":"rail","railway:traffic_mode":"passenger","ref":"3059","start_date":"2015-12-30","tracks":"2","usage":"main","voltage":"25000"},"id":"way/477338075"},{"type":"Feature","geometry":{"type":"LineString","coordinates":[[109.50185,18.236544],[109.501791,18.236769],[109.501737,18.236974],[109.501681,18.237202],[109.501614,18.237466],[109.501143,18.239312],[109.501067,18.239617],[109.500948,18.240102],[109.500549,18.241677],[109.500415,18.242202],[109.500307,18.242624],[109.499757,18.244645],[109.499709,18.244837],[109.499591,18.245319],[109.499063,18.247588],[109.498952,18.248074],[109.498931,18.248143],[109.497877,18.251758],[109.497747,18.252205],[109.497717,18.252309],[109.496961,18.254912],[109.496889,18.255162],[109.496838,18.255318],[109.496783,18.255477],[109.496483,18.256297],[109.496404,18.256515],[109.496023,18.257639],[109.495719,18.25889],[109.495591,18.259388],[109.495515,18.259682],[109.495488,18.259794],[109.495473,18.259855],[109.495447,18.259947],[109.495356,18.260268],[109.495276,18.260556],[109.495088,18.260951],[109.49493,18.261225],[109.494729,18.261495],[109.4945,18.261844],[109.494234,18.262197],[109.493619,18.263075],[109.493232,18.263601],[109.493148,18.263712],[109.492825,18.264111],[109.492024,18.26507],[109.491731,18.265461],[109.491383,18.265947],[109.490879,18.266568],[109.490565,18.266956],[109.490507,18.267029],[109.48964,18.2681],[109.489081,18.268781],[109.488461,18.269548],[109.487786,18.270365],[109.486879,18.271491],[109.48685,18.271551],[109.486829,18.271619],[109.486817,18.271704],[109.486817,18.271787],[109.486821,18.271831],[109.486831,18.271874],[109.48685,18.271929],[109.486877,18.271983]]},"properties":{"@id":"way/572711847","alt_name":"三亚有轨电车示范线","electrified":"yes","gauge":"1435","name":"三亚有轨电车T1线","name:en":"Sanya Tram T1 Line","name:zh":"三亚有轨电车T1线","operator":"三亚市轨道交通有限公司","railway":"light_rail"},"id":"way/572711847"},{"type":"Feature","geometry":{"type":"LineString","coordinates":[[109.490849,18.277015],[109.491564,18.278344]]},"properties":{"@id":"way/572711850","alt_name":"三亚有轨电车示范线","bridge":"yes","electrified":"yes","gauge":"1435","layer":"1","name":"三亚有轨电车T1线","name:en":"Sanya Tram T1 Line","name:zh":"三亚有轨电车T1线","operator":"三亚市轨道交通有限公司","railway":"light_rail"},"id":"way/572711850"},{"type":"Feature","geometry":{"type":"LineString","coordinates":[[109.491564,18.278344],[109.491818,18.278824],[109.491886,18.278942],[109.491946,18.27903],[109.492037,18.279146],[109.492214,18.279351],[109.492278,18.279425],[109.492318,18.279487],[109.492345,18.279545],[109.492361,18.2796],[109.492365,18.279647],[109.492365,18.279698],[109.492363,18.279738],[109.492356,18.279788],[109.492343,18.27983],[109.492324,18.279876],[109.492153,18.280165],[109.491551,18.281182],[109.491115,18.281805],[109.490994,18.281962],[109.490759,18.282231],[109.490567,18.282443],[109.490355,18.282649],[109.489976,18.282967],[109.489823,18.28309],[109.489515,18.283339],[109.489461,18.283384],[109.48937,18.283457],[109.489078,18.283694],[109.487473,18.284967],[109.487257,18.285161],[109.486955,18.285439],[109.486649,18.285755],[109.48601,18.286525],[109.485576,18.287192],[109.485406,18.287493],[109.485248,18.287796],[109.485104,18.288093],[109.484948,18.288455],[109.484872,18.28865],[109.4848,18.28885],[109.4847,18.289131],[109.484676,18.289207],[109.484658,18.289271],[109.484619,18.289411],[109.484579,18.28956],[109.484465,18.290054],[109.484061,18.291883],[109.484013,18.292093],[109.483969,18.29229],[109.483549,18.294185],[109.483234,18.295614],[109.483131,18.296084],[109.4831,18.296216],[109.483061,18.296391],[109.482939,18.297002],[109.482926,18.297082],[109.482916,18.29717],[109.482911,18.297229],[109.482913,18.297298],[109.482921,18.297352],[109.482937,18.297411],[109.482963,18.297474],[109.482994,18.297528],[109.483033,18.29758],[109.483078,18.297624],[109.483139,18.297665],[109.483175,18.297689],[109.483242,18.297718],[109.483322,18.29774],[109.483422,18.297755],[109.487133,18.297766],[109.487194,18.297765],[109.487251,18.297758],[109.487317,18.297737],[109.487362,18.297719],[109.487463,18.297672],[109.487743,18.297544],[109.487867,18.297494],[109.487916,18.297476],[109.487962,18.297466],[109.488013,18.297463],[109.488339,18.297462]]},"properties":{"@id":"way/572711851","alt_name":"三亚有轨电车示范线","electrified":"yes","gauge":"1435","name":"三亚有轨电车T1线","name:en":"Sanya Tram T1 Line","name:zh":"三亚有轨电车T1线","operator":"三亚市轨道交通有限公司","railway":"light_rail","wikidata":"Q135932808"},"id":"way/572711851"},{"type":"Feature","geometry":{"type":"LineString","coordinates":[[109.421434,18.313718],[109.419094,18.312829],[109.417807,18.312416],[109.416448,18.312052]]},"properties":{"@id":"way/598995512","alt_name":"海南环岛高铁线西段;海南环岛高铁西段","electrified":"contact_line","embankment":"yes","frequency":"50","gauge":"1435","highspeed":"yes","loc_name":"海南西环高速铁路","maxspeed":"200","name":"海南西环高速线","passenger_lines":"2","railway":"rail","railway:traffic_mode":"passenger","ref":"3059","start_date":"2015-12-30","tracks":"2","usage":"main","voltage":"25000"},"id":"way/598995512"},{"type":"Feature","geometry":{"type":"LineString","coordinates":[[109.416448,18.312052],[109.415572,18.311884],[109.414779,18.311759],[109.411004,18.311297]]},"properties":{"@id":"way/598995513","alt_name":"海南环岛高铁线西段;海南环岛高铁西段","electrified":"contact_line","frequency":"50","gauge":"1435","highspeed":"yes","layer":"-1","loc_name":"海南西环高速铁路","maxspeed":"200","name":"海南西环高速线","passenger_lines":"2","railway":"rail","railway:traffic_mode":"passenger","ref":"3059","start_date":"2015-12-30","tracks":"2","tunnel":"yes","usage":"main","voltage":"25000"},"id":"way/598995513"},{"type":"Feature","geometry":{"type":"LineString","coordinates":[[109.42865,18.315575],[109.427245,18.315425],[109.426037,18.315222],[109.424825,18.314925],[109.42321,18.314378],[109.421434,18.313718]]},"properties":{"@id":"way/598995539","alt_name":"海南环岛高铁线西段;海南环岛高铁西段","electrified":"contact_line","frequency":"50","gauge":"1435","highspeed":"yes","layer":"-1","loc_name":"海南西环高速铁路","maxspeed":"200","name":"海南西环高速线","passenger_lines":"2","railway":"rail","railway:traffic_mode":"passenger","ref":"3059","start_date":"2015-12-30","tracks":"2","tunnel":"yes","usage":"main","voltage":"25000"},"id":"way/598995539"},{"type":"Feature","geometry":{"type":"LineString","coordinates":[[109.486877,18.271983],[109.487237,18.272354],[109.487401,18.272532],[109.487547,18.272683],[109.487615,18.272755],[109.487722,18.272867],[109.489184,18.274394],[109.489487,18.274732],[109.489715,18.27502],[109.489897,18.27527],[109.490121,18.275651],[109.490268,18.275928],[109.490849,18.277015]]},"properties":{"@id":"way/606810617","alt_name":"三亚有轨电车示范线","electrified":"yes","gauge":"1435","name":"三亚有轨电车T1线","name:en":"Sanya Tram T1 Line","name:zh":"三亚有轨电车T1线","operator":"三亚市轨道交通有限公司","railway":"light_rail"},"id":"way/606810617"},{"type":"Feature","geometry":{"type":"LineString","coordinates":[[109.442251,18.311864],[109.439599,18.31322],[109.438744,18.313648],[109.437827,18.314076],[109.437037,18.314386],[109.436048,18.314735],[109.434769,18.315095],[109.433435,18.315364],[109.432018,18.315554],[109.430621,18.315629],[109.429606,18.315629],[109.42865,18.315575]]},"properties":{"@id":"way/607747356","alt_name":"海南环岛高铁线西段;海南环岛高铁西段","electrified":"contact_line","embankment":"yes","frequency":"50","gauge":"1435","highspeed":"yes","loc_name":"海南西环高速铁路","maxspeed":"200","name":"海南西环高速线","passenger_lines":"2","railway":"rail","railway:traffic_mode":"passenger","ref":"3059","start_date":"2015-12-30","tracks":"2","usage":"main","voltage":"25000"},"id":"way/607747356"},{"type":"Feature","geometry":{"type":"LineString","coordinates":[[109.442839,18.311547],[109.442251,18.311864]]},"properties":{"@id":"way/607747357","alt_name":"海南环岛高铁线西段;海南环岛高铁西段","bridge":"yes","electrified":"contact_line","frequency":"50","gauge":"1435","highspeed":"yes","layer":"1","loc_name":"海南西环高速铁路","maxspeed":"200","name":"海南西环高速线","passenger_lines":"2","railway":"rail","railway:traffic_mode":"passenger","ref":"3059","start_date":"2015-12-30","tracks":"2","usage":"main","voltage":"25000"},"id":"way/607747357"},{"type":"Feature","geometry":{"type":"LineString","coordinates":[[109.44224,18.311943],[109.442826,18.311589]]},"properties":{"@id":"way/607747360","alt_name":"粤海铁路","bridge":"yes","electrified":"no","gauge":"1435","layer":"1","maxspeed":"120","name":"天涯联络线","passenger_lines":"1","railway":"rail","railway:traffic_mode":"mixed","ref":"2740","usage":"main"},"id":"way/607747360"},{"type":"Feature","geometry":{"type":"LineString","coordinates":[[109.443534,18.311125],[109.442857,18.31149]]},"properties":{"@id":"way/627788495","alt_name":"海南环岛高铁线西段;海南环岛高铁西段","electrified":"contact_line","frequency":"50","gauge":"1435","highspeed":"yes","loc_name":"海南西环高速铁路","maxspeed":"200","name":"海南西环高速线","passenger_lines":"2","railway":"rail","railway:traffic_mode":"passenger","ref":"3059","start_date":"2015-12-30","tracks":"2","usage":"main","voltage":"25000"},"id":"way/627788495"},{"type":"Feature","geometry":{"type":"LineString","coordinates":[[109.442857,18.31149],[109.442258,18.311813]]},"properties":{"@id":"way/627788496","alt_name":"海南环岛高铁线西段;海南环岛高铁西段","bridge":"yes","electrified":"contact_line","frequency":"50","gauge":"1435","highspeed":"yes","layer":"1","loc_name":"海南西环高速铁路","maxspeed":"200","name":"海南西环高速线","passenger_lines":"2","railway":"rail","railway:traffic_mode":"passenger","ref":"3059","start_date":"2015-12-30","tracks":"2","usage":"main","voltage":"25000"},"id":"way/627788496"},{"type":"Feature","geometry":{"type":"LineString","coordinates":[[109.442258,18.311813],[109.439576,18.31318],[109.438722,18.313608],[109.437807,18.314035],[109.43702,18.314344],[109.436033,18.314692],[109.434757,18.315051],[109.433427,18.315319],[109.432013,18.315508],[109.430619,18.315584],[109.429608,18.315583],[109.428654,18.31553]]},"properties":{"@id":"way/627788732","alt_name":"海南环岛高铁线西段;海南环岛高铁西段","electrified":"contact_line","embankment":"yes","frequency":"50","gauge":"1435","highspeed":"yes","loc_name":"海南西环高速铁路","maxspeed":"200","name":"海南西环高速线","passenger_lines":"2","railway":"rail","railway:traffic_mode":"passenger","ref":"3059","start_date":"2015-12-30","tracks":"2","usage":"main","voltage":"25000"},"id":"way/627788732"},{"type":"Feature","geometry":{"type":"LineString","coordinates":[[109.428654,18.31553],[109.427252,18.31538],[109.426047,18.315177],[109.424839,18.314881],[109.423226,18.314336],[109.421452,18.313676]]},"properties":{"@id":"way/627788736","alt_name":"海南环岛高铁线西段;海南环岛高铁西段","electrified":"contact_line","frequency":"50","gauge":"1435","highspeed":"yes","layer":"-1","loc_name":"海南西环高速铁路","maxspeed":"200","name":"海南西环高速线","passenger_lines":"2","railway":"rail","railway:traffic_mode":"passenger","ref":"3059","start_date":"2015-12-30","tracks":"2","tunnel":"yes","usage":"main","voltage":"25000"},"id":"way/627788736"},{"type":"Feature","geometry":{"type":"LineString","coordinates":[[109.421452,18.313676],[109.41911,18.312787],[109.417821,18.312373],[109.41646,18.312008]]},"properties":{"@id":"way/627788741","alt_name":"海南环岛高铁线西段;海南环岛高铁西段","electrified":"contact_line","embankment":"yes","frequency":"50","gauge":"1435","highspeed":"yes","loc_name":"海南西环高速铁路","maxspeed":"200","name":"海南西环高速线","passenger_lines":"2","railway":"rail","railway:traffic_mode":"passenger","ref":"3059","start_date":"2015-12-30","tracks":"2","usage":"main","voltage":"25000"},"id":"way/627788741"},{"type":"Feature","geometry":{"type":"LineString","coordinates":[[109.41646,18.312008],[109.41558,18.311839],[109.414786,18.311714],[109.41101,18.311252]]},"properties":{"@id":"way/627788745","alt_name":"海南环岛高铁线西段;海南环岛高铁西段","electrified":"contact_line","frequency":"50","gauge":"1435","highspeed":"yes","layer":"-1","loc_name":"海南西环高速铁路","maxspeed":"200","name":"海南西环高速线","passenger_lines":"2","railway":"rail","railway:traffic_mode":"passenger","ref":"3059","start_date":"2015-12-30","tracks":"2","tunnel":"yes","usage":"main","voltage":"25000"},"id":"way/627788745"},{"type":"Feature","geometry":{"type":"LineString","coordinates":[[109.461322,18.301618],[109.462086,18.301206]]},"properties":{"@id":"way/627788752","alt_name":"海南环岛高铁线西段;海南环岛高铁西段","bridge":"yes","electrified":"contact_line","frequency":"50","gauge":"1435","highspeed":"yes","layer":"1","loc_name":"海南西环高速铁路","maxspeed":"200","name":"海南西环高速线","passenger_lines":"2","railway":"rail","railway:traffic_mode":"passenger","ref":"3059","start_date":"2015-12-30","tracks":"2","usage":"main","voltage":"25000"},"id":"way/627788752"},{"type":"Feature","geometry":{"type":"LineString","coordinates":[[109.462086,18.301206],[109.462654,18.300904],[109.463156,18.300637],[109.46364,18.30039],[109.463961,18.300234],[109.464293,18.300082],[109.464666,18.299923],[109.46498,18.299798],[109.46537,18.299651],[109.465804,18.299504],[109.466317,18.299348],[109.466792,18.299219],[109.467242,18.299113],[109.467601,18.299038],[109.467997,18.298967],[109.468381,18.298904],[109.468774,18.29885],[109.469138,18.298811],[109.469499,18.298781],[109.469975,18.298755],[109.470467,18.298742],[109.471871,18.29873]]},"properties":{"@id":"way/627788753","alt_name":"海南环岛高铁线西段;海南环岛高铁西段","electrified":"contact_line","frequency":"50","gauge":"1435","highspeed":"yes","loc_name":"海南西环高速铁路","maxspeed":"200","name":"海南西环高速线","passenger_lines":"2","railway":"rail","railway:traffic_mode":"passenger","ref":"3059","start_date":"2015-12-30","tracks":"2","usage":"main","voltage":"25000"},"id":"way/627788753"},{"type":"Feature","geometry":{"type":"LineString","coordinates":[[109.471871,18.29873],[109.472413,18.298731]]},"properties":{"@id":"way/627788754","alt_name":"海南环岛高铁线西段;海南环岛高铁西段","bridge":"yes","electrified":"contact_line","frequency":"50","gauge":"1435","highspeed":"yes","layer":"1","loc_name":"海南西环高速铁路","maxspeed":"200","name":"海南西环高速线","passenger_lines":"2","railway":"rail","railway:traffic_mode":"passenger","ref":"3059","start_date":"2015-12-30","tracks":"2","usage":"main","voltage":"25000"},"id":"way/627788754"},{"type":"Feature","geometry":{"type":"LineString","coordinates":[[109.546365,18.295135],[109.547511,18.294664],[109.54968,18.293886],[109.550802,18.293521],[109.552092,18.293158]]},"properties":{"@id":"way/627788759","alt_name":"海南环岛高铁线东段;海南环岛高铁东段","electrified":"contact_line","frequency":"50","gauge":"1435","highspeed":"yes","loc_name":"海南东环铁路","maxspeed":"250","name":"海南东环高速线","passenger_lines":"2","railway":"rail","railway:traffic_mode":"passenger","ref":"3018","start_date":"2010-12-30","usage":"main","voltage":"25000"},"id":"way/627788759"},{"type":"Feature","geometry":{"type":"LineString","coordinates":[[109.577178,18.293757],[109.574335,18.292953],[109.571288,18.292314],[109.568093,18.29186],[109.564741,18.29165],[109.561033,18.291744],[109.557842,18.292003],[109.554574,18.292581],[109.552092,18.293158]]},"properties":{"@id":"way/627788761","alt_name":"海南环岛高铁线东段;海南环岛高铁东段","electrified":"contact_line","frequency":"50","gauge":"1435","highspeed":"yes","layer":"-1","loc_name":"海南东环铁路","maxspeed":"250","name":"海南东环高速线","passenger_lines":"2","railway":"rail","railway:traffic_mode":"passenger","ref":"3018","start_date":"2010-12-30","tunnel":"yes","usage":"main","voltage":"25000"},"id":"way/627788761"},{"type":"Feature","geometry":{"type":"LineString","coordinates":[[109.58556,18.297388],[109.583889,18.296544],[109.582213,18.295675],[109.580493,18.294904],[109.579059,18.294369],[109.577178,18.293757]]},"properties":{"@id":"way/627788762","alt_name":"海南环岛高铁线东段;海南环岛高铁东段","electrified":"contact_line","frequency":"50","gauge":"1435","highspeed":"yes","loc_name":"海南东环铁路","maxspeed":"250","name":"海南东环高速线","passenger_lines":"2","railway":"rail","railway:traffic_mode":"passenger","ref":"3018","start_date":"2010-12-30","usage":"main","voltage":"25000"},"id":"way/627788762"},{"type":"Feature","geometry":{"type":"LineString","coordinates":[[109.594645,18.303001],[109.593753,18.30249],[109.58647,18.297873],[109.58556,18.297388]]},"properties":{"@id":"way/627788764","alt_name":"海南环岛高铁线东段;海南环岛高铁东段","electrified":"contact_line","frequency":"50","gauge":"1435","highspeed":"yes","layer":"-1","loc_name":"海南东环铁路","maxspeed":"250","name":"海南东环高速线","passenger_lines":"2","railway":"rail","railway:traffic_mode":"passenger","ref":"3018","start_date":"2010-12-30","tunnel":"yes","usage":"main","voltage":"25000"},"id":"way/627788764"},{"type":"Feature","geometry":{"type":"LineString","coordinates":[[109.491604,18.278324],[109.491866,18.278831],[109.491922,18.278924],[109.49198,18.279008],[109.492074,18.27913],[109.492221,18.279295],[109.492282,18.279361],[109.492342,18.279432],[109.492386,18.279501],[109.492411,18.279549],[109.492428,18.2796],[109.492436,18.279635],[109.492442,18.279672],[109.49244,18.279726],[109.492434,18.279783],[109.492418,18.279838],[109.492394,18.279891],[109.492212,18.280198],[109.492111,18.280369],[109.491927,18.280636],[109.491844,18.280761],[109.491579,18.281199],[109.491134,18.28182],[109.491015,18.281976],[109.490785,18.282244],[109.490588,18.282461],[109.490375,18.282671],[109.489995,18.282989],[109.489536,18.283361],[109.489479,18.283407],[109.489389,18.28348],[109.489096,18.283717],[109.488713,18.284023],[109.487504,18.285001],[109.487246,18.285226],[109.486969,18.285475],[109.486686,18.285776],[109.486047,18.286559],[109.485607,18.287218],[109.485434,18.287512],[109.485275,18.287814],[109.485137,18.288103],[109.484973,18.288486],[109.484908,18.288658],[109.484739,18.28913],[109.484715,18.289209],[109.484697,18.28927],[109.484657,18.28941],[109.484615,18.289561],[109.484548,18.289847],[109.484499,18.290058],[109.48419,18.291456],[109.484095,18.291891],[109.484049,18.292091],[109.484002,18.292296],[109.483582,18.294191],[109.483174,18.296079],[109.483142,18.296216],[109.483102,18.29639],[109.483036,18.296708],[109.482982,18.296974],[109.482964,18.297077],[109.482951,18.297179],[109.482946,18.297231],[109.482949,18.297294],[109.482958,18.297345],[109.482971,18.297396],[109.483003,18.297461],[109.483043,18.297525],[109.483086,18.297574],[109.483135,18.297612],[109.48323,18.297665],[109.483261,18.297683],[109.483335,18.297702],[109.483425,18.297717],[109.485935,18.29773],[109.487125,18.297729],[109.487188,18.297726],[109.487247,18.297719],[109.487301,18.297701],[109.487348,18.297682],[109.487445,18.297637],[109.487725,18.297509],[109.487883,18.297438],[109.487937,18.297417],[109.487985,18.297404],[109.488042,18.297399],[109.488339,18.297398]]},"properties":{"@id":"way/645947802","alt_name":"三亚有轨电车示范线","electrified":"yes","gauge":"1435","name":"三亚有轨电车T1线","name:en":"Sanya Tram T1 Line","name:zh":"三亚有轨电车T1线","operator":"三亚市轨道交通有限公司","railway":"light_rail","wikidata":"Q135932808"},"id":"way/645947802"},{"type":"Feature","geometry":{"type":"LineString","coordinates":[[109.501919,18.236559],[109.501859,18.236783],[109.50179,18.237045],[109.501729,18.237208],[109.501658,18.237473],[109.501185,18.239319],[109.500455,18.242212],[109.50026,18.242935],[109.499803,18.244658],[109.499754,18.244847],[109.499632,18.245339],[109.498998,18.248082],[109.498979,18.248151],[109.498838,18.248614],[109.497794,18.252215],[109.497765,18.252319],[109.497632,18.252771],[109.496929,18.255168],[109.496879,18.255327],[109.496821,18.255492],[109.496722,18.255757],[109.496516,18.256308],[109.496157,18.257347],[109.496059,18.257672],[109.495677,18.259222],[109.495552,18.259708],[109.495524,18.259816],[109.495509,18.259877],[109.495483,18.259969],[109.495393,18.260285],[109.495312,18.260564],[109.495258,18.260687],[109.495117,18.260964],[109.49496,18.261228],[109.493662,18.263076],[109.49326,18.263625],[109.493175,18.263735],[109.492781,18.26422],[109.491899,18.265306],[109.491366,18.266063],[109.491158,18.266347],[109.490937,18.266617],[109.490619,18.267004],[109.490555,18.267073],[109.490141,18.267554],[109.489741,18.268064],[109.48912,18.268813],[109.488535,18.26954],[109.487818,18.270381],[109.486916,18.2715],[109.486883,18.271566],[109.486864,18.271631],[109.486854,18.271701],[109.486855,18.27177],[109.486862,18.271837],[109.486868,18.271871],[109.486878,18.271902],[109.486895,18.271942]]},"properties":{"@id":"way/793518083","alt_name":"三亚有轨电车示范线","electrified":"yes","gauge":"1435","name":"三亚有轨电车T1线","name:en":"Sanya Tram T1 Line","name:zh":"三亚有轨电车T1线","operator":"三亚市轨道交通有限公司","railway":"light_rail"},"id":"way/793518083"},{"type":"Feature","geometry":{"type":"LineString","coordinates":[[109.490892,18.276995],[109.491604,18.278324]]},"properties":{"@id":"way/802696634","alt_name":"三亚有轨电车示范线","bridge":"yes","electrified":"yes","gauge":"1435","name":"三亚有轨电车T1线","name:en":"Sanya Tram T1 Line","name:zh":"三亚有轨电车T1线","operator":"三亚市轨道交通有限公司","railway":"light_rail"},"id":"way/802696634"},{"type":"Feature","geometry":{"type":"LineString","coordinates":[[109.486895,18.271942],[109.487437,18.272498],[109.487582,18.272651],[109.487649,18.272721],[109.487756,18.272834],[109.487952,18.273038],[109.489219,18.274368],[109.489524,18.274704],[109.489752,18.274994],[109.489935,18.275248],[109.490165,18.275642],[109.490311,18.27591],[109.490892,18.276995]]},"properties":{"@id":"way/802696635","alt_name":"三亚有轨电车示范线","electrified":"yes","gauge":"1435","name":"三亚有轨电车T1线","name:en":"Sanya Tram T1 Line","name:zh":"三亚有轨电车T1线","operator":"三亚市轨道交通有限公司","railway":"light_rail"},"id":"way/802696635"},{"type":"Feature","geometry":{"type":"LineString","coordinates":[[109.442826,18.311589],[109.44316,18.311387],[109.443354,18.311275],[109.443553,18.311164]]},"properties":{"@id":"way/817964949","alt_name":"粤海铁路","electrified":"no","gauge":"1435","layer":"1","maxspeed":"120","name":"天涯联络线","passenger_lines":"1","railway":"rail","railway:traffic_mode":"mixed","ref":"2740","usage":"main"},"id":"way/817964949"},{"type":"Feature","geometry":{"type":"LineString","coordinates":[[109.443534,18.311125],[109.445167,18.310225]]},"properties":{"@id":"way/817964950","alt_name":"海南环岛高铁线西段;海南环岛高铁西段","electrified":"contact_line","frequency":"50","gauge":"1435","highspeed":"yes","loc_name":"海南西环高速铁路","maxspeed":"200","name":"海南西环高速线","passenger_lines":"2","railway":"rail","railway:traffic_mode":"passenger","ref":"3059","start_date":"2015-12-30","tracks":"2","usage":"main","voltage":"25000"},"id":"way/817964950"},{"type":"Feature","geometry":{"type":"LineString","coordinates":[[109.444224,18.310786],[109.461194,18.301768]]},"properties":{"@id":"way/860387293","alt_name":"海南环岛高铁线西段;海南环岛高铁西段","electrified":"contact_line","frequency":"50","gauge":"1435","highspeed":"yes","loc_name":"海南西环高速铁路","maxspeed":"200","name":"海南西环高速线","passenger_lines":"2","railway":"rail","railway:traffic_mode":"passenger","ref":"3059","start_date":"2015-12-30","tracks":"2","usage":"main","voltage":"25000"},"id":"way/860387293"},{"type":"Feature","geometry":{"type":"LineString","coordinates":[[109.445167,18.310225],[109.461322,18.301618]]},"properties":{"@id":"way/860387294","alt_name":"海南环岛高铁线西段;海南环岛高铁西段","electrified":"contact_line","frequency":"50","gauge":"1435","highspeed":"yes","loc_name":"海南西环高速铁路","maxspeed":"200","name":"海南西环高速线","passenger_lines":"2","railway":"rail","railway:traffic_mode":"passenger","ref":"3059","start_date":"2015-12-30","tracks":"2","usage":"main","voltage":"25000"},"id":"way/860387294"},{"type":"Feature","geometry":{"type":"LineString","coordinates":[[109.444224,18.310786],[109.445167,18.310225]]},"properties":{"@id":"way/860387320","name":"海南环岛高铁西段與粤海铁路共线路段","railway":"rail","service":"crossover"},"id":"way/860387320"},{"type":"Feature","geometry":{"type":"LineString","coordinates":[[109.456457,18.304793],[109.456942,18.304404]]},"properties":{"@id":"way/1029083788","railway":"rail","service":"crossover"},"id":"way/1029083788"},{"type":"Feature","geometry":{"type":"LineString","coordinates":[[109.463749,18.300685],[109.463503,18.300797],[109.463204,18.300916],[109.462972,18.301023]]},"properties":{"@id":"way/1029083790","railway":"rail","service":"crossover"},"id":"way/1029083790"},{"type":"Feature","geometry":{"type":"LineString","coordinates":[[109.472413,18.298731],[109.474066,18.298735]]},"properties":{"@id":"way/1029083795","alt_name":"海南环岛高铁线西段;海南环岛高铁西段","electrified":"contact_line","frequency":"50","gauge":"1435","highspeed":"yes","loc_name":"海南西环高速铁路","maxspeed":"200","name":"海南西环高速线","passenger_lines":"2","railway":"rail","railway:traffic_mode":"passenger","ref":"3059","start_date":"2015-12-30","tracks":"2","usage":"main","voltage":"25000"},"id":"way/1029083795"},{"type":"Feature","geometry":{"type":"LineString","coordinates":[[109.472328,18.298805],[109.47344,18.298787],[109.474064,18.298786]]},"properties":{"@id":"way/1029083796","alt_name":"海南环岛高铁线西段;海南环岛高铁西段","electrified":"contact_line","frequency":"50","gauge":"1435","highspeed":"yes","loc_name":"海南西环高速铁路","maxspeed":"200","name":"海南西环高速线","passenger_lines":"2","railway":"rail","railway:traffic_mode":"passenger","ref":"3059","start_date":"2015-12-30","tracks":"2","usage":"main","voltage":"25000"},"id":"way/1029083796"},{"type":"Feature","geometry":{"type":"LineString","coordinates":[[109.474066,18.298735],[109.474303,18.298735]]},"properties":{"@id":"way/1029083797","alt_name":"海南环岛高铁线西段;海南环岛高铁西段","bridge":"yes","electrified":"contact_line","frequency":"50","gauge":"1435","highspeed":"yes","layer":"1","loc_name":"海南西环高速铁路","maxspeed":"200","name":"海南西环高速线","passenger_lines":"2","railway":"rail","railway:traffic_mode":"passenger","ref":"3059","start_date":"2015-12-30","tracks":"2","usage":"main","voltage":"25000"},"id":"way/1029083797"},{"type":"Feature","geometry":{"type":"LineString","coordinates":[[109.474064,18.298786],[109.474304,18.298786]]},"properties":{"@id":"way/1029083798","alt_name":"海南环岛高铁线西段;海南环岛高铁西段","bridge":"yes","electrified":"contact_line","frequency":"50","gauge":"1435","highspeed":"yes","layer":"1","loc_name":"海南西环高速铁路","maxspeed":"200","name":"海南西环高速线","passenger_lines":"2","railway":"rail","railway:traffic_mode":"passenger","ref":"3059","start_date":"2015-12-30","tracks":"2","usage":"main","voltage":"25000"},"id":"way/1029083798"},{"type":"Feature","geometry":{"type":"LineString","coordinates":[[109.486161,18.271228],[109.486877,18.271983]]},"properties":{"@id":"way/1084953073","electrified":"yes","gauge":"1435","operator":"三亚市轨道交通有限公司","railway":"light_rail"},"id":"way/1084953073"},{"type":"Feature","geometry":{"type":"LineString","coordinates":[[109.501614,18.237466],[109.501669,18.23734],[109.501729,18.237208]]},"properties":{"@id":"way/1085164769","electrified":"yes","gauge":"1435","operator":"三亚市轨道交通有限公司","railway":"light_rail"},"id":"way/1085164769"},{"type":"Feature","geometry":{"type":"LineString","coordinates":[[109.501658,18.237473],[109.501669,18.23734],[109.501681,18.237202]]},"properties":{"@id":"way/1085164770","electrified":"yes","gauge":"1435","operator":"三亚市轨道交通有限公司","railway":"light_rail"},"id":"way/1085164770"},{"type":"Feature","geometry":{"type":"LineString","coordinates":[[109.486191,18.271205],[109.486831,18.271874],[109.486895,18.271942]]},"properties":{"@id":"way/1203507648","electrified":"yes","gauge":"1435","operator":"三亚市轨道交通有限公司","railway":"light_rail"},"id":"way/1203507648"},{"type":"Feature","geometry":{"type":"LineString","coordinates":[[109.488339,18.297398],[109.488642,18.297397],[109.488742,18.297395],[109.489343,18.297393],[109.489418,18.297398],[109.489493,18.297413],[109.489556,18.297437],[109.489605,18.297461],[109.489807,18.297577],[109.490035,18.297705],[109.490126,18.297751],[109.490203,18.297777],[109.490301,18.297793],[109.490426,18.297794],[109.490815,18.297797],[109.491125,18.297798]]},"properties":{"@id":"way/1203507651","alt_name":"三亚有轨电车示范线","electrified":"yes","gauge":"1435","name":"三亚有轨电车T1线","name:en":"Sanya Tram T1 Line","name:zh":"三亚有轨电车T1线","operator":"三亚市轨道交通有限公司","railway":"light_rail"},"id":"way/1203507651"},{"type":"Feature","geometry":{"type":"LineString","coordinates":[[109.488339,18.297462],[109.488642,18.297461],[109.488742,18.297462],[109.489388,18.297458],[109.489446,18.297461],[109.489527,18.297477],[109.489598,18.297505],[109.489669,18.297543],[109.489804,18.297622],[109.490021,18.297741],[109.490111,18.297787],[109.490196,18.297814],[109.4903,18.29783],[109.490427,18.297832],[109.490746,18.297834],[109.490954,18.297835],[109.491127,18.297836]]},"properties":{"@id":"way/1203507652","alt_name":"三亚有轨电车示范线","electrified":"yes","gauge":"1435","name":"三亚有轨电车T1线","name:en":"Sanya Tram T1 Line","name:zh":"三亚有轨电车T1线","operator":"三亚市轨道交通有限公司","railway":"light_rail"},"id":"way/1203507652"},{"type":"Feature","geometry":{"type":"LineString","coordinates":[[109.487463,18.297672],[109.487594,18.29759],[109.487725,18.297509]]},"properties":{"@id":"way/1203507654","electrified":"yes","gauge":"1435","operator":"三亚市轨道交通有限公司","railway":"light_rail","service":"crossover"},"id":"way/1203507654"},{"type":"Feature","geometry":{"type":"LineString","coordinates":[[109.487743,18.297544],[109.487594,18.29759],[109.487445,18.297637]]},"properties":{"@id":"way/1203507655","electrified":"yes","gauge":"1435","operator":"三亚市轨道交通有限公司","railway":"light_rail","service":"crossover"},"id":"way/1203507655"},{"type":"Feature","geometry":{"type":"LineString","coordinates":[[109.440018,18.313279],[109.440465,18.313027],[109.440882,18.312773],[109.44224,18.311943]]},"properties":{"@id":"way/1419159288","alt_name":"粤海铁路","electrified":"no","gauge":"1435","maxspeed":"120","name":"天涯联络线","passenger_lines":"1","railway":"rail","railway:traffic_mode":"mixed","ref":"2740","usage":"main"},"id":"way/1419159288"},{"type":"Feature","geometry":{"type":"Point","coordinates":[109.532054,18.250985]},"properties":{"@id":"node/5274845361","aerialway":"station","public_transport":"station"},"id":"node/5274845361"},{"type":"Feature","geometry":{"type":"Point","coordinates":[109.544799,18.253224]},"properties":{"@id":"node/5274845366","aerialway":"station","public_transport":"station"},"id":"node/5274845366"}]}